{"type": "FeatureCollection", "features": [{"type": "Feature", "geometry": {"type": "Point", "coordinates": [91.2079804, 53.8145375]}, "properties": {}}, {"type": "Feature", "geometry": {"type": "Point", "coordinates": [89.5615924, 53.2664351]}, "properties": {}}, {"type": "Feature", "geometry": {"type": "Point", "coordinates": [89.8247859, 54.9950815]}, "properties": {}}, {"type": "Feature", "geometry": {"type": "Point", "coordinates": [90.4391411, 53.134806]}, "properties": {}}, {"type": "Feature", "geometry": {"type": "Point", "coordinates": [90.3903026, 54.390057]}, "properties": {}}, {"type": "Feature", "geometry": {"type": "Point", "coordinates": [91.41611, 53.1023186]}, "properties": {}}, {"type": "Feature", "geometry": {"type": "Point", "coordinates": [90.0803045, 52.6456352]}, "properties": {}}, {"type": "Feature", "geometry": {"type": "Point", "coordinates": [91.4020869, 53.8006152]}, "properties": {}}, {"type": "Feature", "geometry": {"type": "Point", "coordinates": [89.2820215, 54.3439581]}, "properties": {}}, {"type": "Feature", "geometry": {"type": "Point", "coordinates": [89.9646972, 54.4822049]}, "properties": {}}, {"type": "Feature", "geometry": {"type": "Point", "coordinates": [90.9422346, 53.345953]}, "properties": {}}, {"type": "Feature", "geometry": {"type": "Point", "coordinates": [90.9772609, 54.3620274]}, "properties": {}}, {"type": "Feature", "geometry": {"type": "Point", "coordinates": [88.9587152, 54.7787307]}, "properties": {}}, {"type": "Feature", "geometry": {"type": "Point", "coordinates": [90.5286221, 53.489045]}, "properties": {}}, {"type": "Feature", "geometry": {"type": "Point", "coordinates": [91.3452928, 53.6611521]}, "properties": {}}, {"type": "Feature", "geometry": {"type": "Point", "coordinates": [89.8959575, 52.8000478]}, "properties": {}}, {"type": "Feature", "geometry": {"type": "Point", "coordinates": [89.4428749, 52.8126651]}, "properties": {}}, {"type": "Feature", "geometry": {"type": "Point", "coordinates": [90.2368487, 53.9945789]}, "properties": {}}, {"type": "Feature", "geometry": {"type": "Point", "coordinates": [91.4140495, 53.7085145]}, "properties": {}}, {"type": "Feature", "geometry": {"type": "Point", "coordinates": [90.184136, 53.1597256]}, "properties": {}}, {"type": "Feature", "geometry": {"type": "Point", "coordinates": [90.9067892, 53.0469836]}, "properties": {}}, {"type": "Feature", "geometry": {"type": "Point", "coordinates": [89.1295311, 53.4143592]}, "properties": {}}, {"type": "Feature", "geometry": {"type": "Point", "coordinates": [89.9001461, 53.3248503]}, "properties": {}}, {"type": "Feature", "geometry": {"type": "Point", "coordinates": [90.5166842, 54.7074299]}, "properties": {}}, {"type": "Feature", "geometry": {"type": "Point", "coordinates": [91.5602178, 53.3282321]}, "properties": {}}, {"type": "Feature", "geometry": {"type": "Point", "coordinates": [90.2116126, 54.9579187]}, "properties": {}}, {"type": "Feature", "geometry": {"type": "Point", "coordinates": [89.546881, 54.5463268]}, "properties": {}}, {"type": "Feature", "geometry": {"type": "Point", "coordinates": [90.8478553, 54.2230162]}, "properties": {}}, {"type": "Feature", "geometry": {"type": "Point", "coordinates": [90.4335135, 52.8660247]}, "properties": {}}, {"type": "Feature", "geometry": {"type": "Point", "coordinates": [91.0687994, 53.5392787]}, "properties": {}}, {"type": "Feature", "geometry": {"type": "Point", "coordinates": [90.5183296, 53.1340069]}, "properties": {}}, {"type": "Feature", "geometry": {"type": "Point", "coordinates": [91.3035992, 53.8351083]}, "properties": {}}, {"type": "Feature", "geometry": {"type": "Point", "coordinates": [91.3139852, 54.275797]}, "properties": {}}, {"type": "Feature", "geometry": {"type": "Point", "coordinates": [91.5315601, 53.6542657]}, "properties": {}}, {"type": "Feature", "geometry": {"type": "Point", "coordinates": [91.8874664, 53.3426593]}, "properties": {}}, {"type": "Feature", "geometry": {"type": "Point", "coordinates": [89.5595547, 54.906406]}, "properties": {}}, {"type": "Feature", "geometry": {"type": "Point", "coordinates": [89.9531448, 54.3387272]}, "properties": {}}, {"type": "Feature", "geometry": {"type": "Point", "coordinates": [89.7612264, 54.7003944]}, "properties": {}}, {"type": "Feature", "geometry": {"type": "Point", "coordinates": [90.9709197, 53.9843621]}, "properties": {}}, {"type": "Feature", "geometry": {"type": "Point", "coordinates": [90.8003019, 54.5364276]}, "properties": {}}, {"type": "Feature", "geometry": {"type": "Point", "coordinates": [89.2496702, 54.8640064]}, "properties": {}}, {"type": "Feature", "geometry": {"type": "Point", "coordinates": [90.3758328, 53.7018092]}, "properties": {}}, {"type": "Feature", "geometry": {"type": "Point", "coordinates": [90.2480464, 52.9529562]}, "properties": {}}, {"type": "Feature", "geometry": {"type": "Point", "coordinates": [91.2229227, 53.2802348]}, "properties": {}}, {"type": "Feature", "geometry": {"type": "Point", "coordinates": [91.4883648, 52.995828]}, "properties": {}}, {"type": "Feature", "geometry": {"type": "Point", "coordinates": [89.8221658, 52.3274662]}, "properties": {}}, {"type": "Feature", "geometry": {"type": "Point", "coordinates": [89.9150764, 53.1330181]}, "properties": {}}, {"type": "Feature", "geometry": {"type": "Point", "coordinates": [90.1711308, 54.4904547]}, "properties": {}}, {"type": "Feature", "geometry": {"type": "Point", "coordinates": [90.7053354, 53.3519063]}, "properties": {}}, {"type": "Feature", "geometry": {"type": "Point", "coordinates": [90.6341554, 53.0364149]}, "properties": {}}, {"type": "Feature", "geometry": {"type": "Point", "coordinates": [90.6104682, 54.3084844]}, "properties": {}}, {"type": "Feature", "geometry": {"type": "Point", "coordinates": [90.4210371, 53.0458105]}, "properties": {}}, {"type": "Feature", "geometry": {"type": "Point", "coordinates": [88.7026155, 54.902277]}, "properties": {}}, {"type": "Feature", "geometry": {"type": "Point", "coordinates": [91.2639111, 53.0634263]}, "properties": {}}, {"type": "Feature", "geometry": {"type": "Point", "coordinates": [89.708256, 52.6843921]}, "properties": {}}, {"type": "Feature", "geometry": {"type": "Point", "coordinates": [90.3144035, 52.7160009]}, "properties": {}}, {"type": "Feature", "geometry": {"type": "Point", "coordinates": [89.1009971, 52.4461342]}, "properties": {}}, {"type": "Feature", "geometry": {"type": "Point", "coordinates": [89.4784532, 54.1385807]}, "properties": {}}, {"type": "Feature", "geometry": {"type": "Point", "coordinates": [89.4286262, 54.6851007]}, "properties": {}}, {"type": "Feature", "geometry": {"type": "Point", "coordinates": [91.3655619, 53.5868446]}, "properties": {}}, {"type": "Feature", "geometry": {"type": "Point", "coordinates": [90.7429834, 54.7733992]}, "properties": {}}, {"type": "Feature", "geometry": {"type": "Point", "coordinates": [91.4346398, 54.1136803]}, "properties": {}}, {"type": "Feature", "geometry": {"type": "Point", "coordinates": [89.8089302, 52.9628444]}, "properties": {}}, {"type": "Feature", "geometry": {"type": "Point", "coordinates": [91.4538204, 53.7052224]}, "properties": {}}, {"type": "Feature", "geometry": {"type": "Point", "coordinates": [90.2430001, 53.8315722]}, "properties": {}}, {"type": "Feature", "geometry": {"type": "Point", "coordinates": [91.5111817, 53.1646623]}, "properties": {}}, {"type": "Feature", "geometry": {"type": "Point", "coordinates": [89.1734082, 54.6194148]}, "properties": {}}, {"type": "Feature", "geometry": {"type": "Point", "coordinates": [91.130184, 54.0977556]}, "properties": {}}, {"type": "Feature", "geometry": {"type": "Point", "coordinates": [90.1760534, 54.6977022]}, "properties": {}}, {"type": "Feature", "geometry": {"type": "Point", "coordinates": [90.8087399, 53.2366843]}, "properties": {}}, {"type": "Feature", "geometry": {"type": "Point", "coordinates": [90.2169949, 54.162332]}, "properties": {}}, {"type": "Feature", "geometry": {"type": "Point", "coordinates": [91.1831013, 53.6900591]}, "properties": {}}, {"type": "Feature", "geometry": {"type": "Point", "coordinates": [89.4562497, 52.65598]}, "properties": {}}, {"type": "Feature", "geometry": {"type": "Point", "coordinates": [90.1192904, 55.0773435]}, "properties": {}}, {"type": "Feature", "geometry": {"type": "Point", "coordinates": [90.7049194, 53.6224044]}, "properties": {}}, {"type": "Feature", "geometry": {"type": "Point", "coordinates": [91.4147028, 52.8542824]}, "properties": {}}, {"type": "Feature", "geometry": {"type": "Point", "coordinates": [90.0379475, 52.9345583]}, "properties": {}}, {"type": "Feature", "geometry": {"type": "Point", "coordinates": [90.5448166, 53.3843001]}, "properties": {}}, {"type": "Feature", "geometry": {"type": "Point", "coordinates": [89.5266029, 53.4547105]}, "properties": {}}, {"type": "Feature", "geometry": {"type": "Point", "coordinates": [88.8698638, 54.7109157]}, "properties": {}}, {"type": "Feature", "geometry": {"type": "Point", "coordinates": [91.0531786, 53.1530583]}, "properties": {}}, {"type": "Feature", "geometry": {"type": "Point", "coordinates": [91.1651348, 54.4479406]}, "properties": {}}, {"type": "Feature", "geometry": {"type": "Point", "coordinates": [91.1784779, 53.5213556]}, "properties": {}}, {"type": "Feature", "geometry": {"type": "Point", "coordinates": [91.3624576, 53.75051]}, "properties": {}}, {"type": "Feature", "geometry": {"type": "Point", "coordinates": [91.3727212, 53.4289612]}, "properties": {}}, {"type": "Feature", "geometry": {"type": "Point", "coordinates": [89.9119366, 54.5793196]}, "properties": {}}, {"type": "Feature", "geometry": {"type": "Point", "coordinates": [91.2903164, 53.6761208]}, "properties": {}}, {"type": "Feature", "geometry": {"type": "Point", "coordinates": [91.0685317, 53.4154133]}, "properties": {}}, {"type": "Feature", "geometry": {"type": "Point", "coordinates": [89.7968219, 52.7428345]}, "properties": {}}, {"type": "Feature", "geometry": {"type": "Point", "coordinates": [90.0049809, 53.245889]}, "properties": {}}, {"type": "Feature", "geometry": {"type": "Point", "coordinates": [90.4829689, 54.2275001]}, "properties": {}}, {"type": "Feature", "geometry": {"type": "Point", "coordinates": [90.2949823, 53.2452238]}, "properties": {}}, {"type": "Feature", "geometry": {"type": "Point", "coordinates": [91.6496225, 53.1686312]}, "properties": {}}, {"type": "Feature", "geometry": {"type": "Point", "coordinates": [90.718395, 52.9477359]}, "properties": {}}, {"type": "Feature", "geometry": {"type": "Point", "coordinates": [90.3944687, 54.8101692]}, "properties": {}}, {"type": "Feature", "geometry": {"type": "Point", "coordinates": [89.4458712, 54.4661099]}, "properties": {}}, {"type": "Feature", "geometry": {"type": "Point", "coordinates": [91.1051137, 53.9304033]}, "properties": {}}, {"type": "Feature", "geometry": {"type": "Point", "coordinates": [91.391912, 53.8370846]}, "properties": {}}, {"type": "Feature", "geometry": {"type": "Point", "coordinates": [91.4742301, 53.6332694]}, "properties": {}}, {"type": "Feature", "geometry": {"type": "Point", "coordinates": [91.2967658, 53.780654]}, "properties": {}}, {"type": "Feature", "geometry": {"type": "Point", "coordinates": [91.5334781, 53.477163]}, "properties": {}}, {"type": "Feature", "geometry": {"type": "Point", "coordinates": [91.0938725, 54.2810131]}, "properties": {}}, {"type": "Feature", "geometry": {"type": "Point", "coordinates": [90.3748906, 54.4627249]}, "properties": {}}, {"type": "Feature", "geometry": {"type": "Point", "coordinates": [90.4794094, 52.931304]}, "properties": {}}, {"type": "Feature", "geometry": {"type": "Point", "coordinates": [91.2841028, 53.8121815]}, "properties": {}}, {"type": "Feature", "geometry": {"type": "Point", "coordinates": [89.3455488, 53.3194134]}, "properties": {}}, {"type": "Feature", "geometry": {"type": "Point", "coordinates": [90.6012656, 53.853857]}, "properties": {}}, {"type": "Feature", "geometry": {"type": "Point", "coordinates": [89.7319131, 54.542273]}, "properties": {}}, {"type": "Feature", "geometry": {"type": "Point", "coordinates": [88.6947115, 54.6536846]}, "properties": {}}, {"type": "Feature", "geometry": {"type": "Point", "coordinates": [89.7980517, 53.3817705]}, "properties": {}}, {"type": "Feature", "geometry": {"type": "Point", "coordinates": [90.7597638, 54.3207572]}, "properties": {}}, {"type": "Feature", "geometry": {"type": "Point", "coordinates": [91.2556599, 53.8996707]}, "properties": {}}, {"type": "Feature", "geometry": {"type": "Point", "coordinates": [91.3621239, 53.6697829]}, "properties": {}}, {"type": "Feature", "geometry": {"type": "Point", "coordinates": [89.4476828, 54.8199744]}, "properties": {}}, {"type": "Feature", "geometry": {"type": "Point", "coordinates": [90.3127421, 53.9748779]}, "properties": {}}, {"type": "Feature", "geometry": {"type": "Point", "coordinates": [90.1193805, 52.651314]}, "properties": {}}, {"type": "Feature", "geometry": {"type": "Point", "coordinates": [89.9479848, 52.8297805]}, "properties": {}}, {"type": "Feature", "geometry": {"type": "Point", "coordinates": [89.7588677, 52.0671433]}, "properties": {}}, {"type": "Feature", "geometry": {"type": "Point", "coordinates": [91.5998217, 53.3793701]}, "properties": {}}, {"type": "Feature", "geometry": {"type": "Point", "coordinates": [91.3308492, 53.7861946]}, "properties": {}}, {"type": "Feature", "geometry": {"type": "Point", "coordinates": [90.172426, 53.5845211]}, "properties": {}}, {"type": "Feature", "geometry": {"type": "Point", "coordinates": [91.3778619, 53.0689581]}, "properties": {}}, {"type": "Feature", "geometry": {"type": "Point", "coordinates": [91.4151408, 53.9059342]}, "properties": {}}, {"type": "Feature", "geometry": {"type": "Point", "coordinates": [91.2762368, 53.5521377]}, "properties": {}}, {"type": "Feature", "geometry": {"type": "Point", "coordinates": [91.4022141, 53.6047918]}, "properties": {}}, {"type": "Feature", "geometry": {"type": "Point", "coordinates": [91.4052088, 53.7460309]}, "properties": {}}, {"type": "Feature", "geometry": {"type": "Point", "coordinates": [89.876216, 54.7283407]}, "properties": {}}, {"type": "Feature", "geometry": {"type": "Point", "coordinates": [91.5088127, 53.6959881]}, "properties": {}}, {"type": "Feature", "geometry": {"type": "Point", "coordinates": [90.0748454, 52.6010804]}, "properties": {}}, {"type": "Feature", "geometry": {"type": "Point", "coordinates": [91.8067807, 53.4374437]}, "properties": {}}, {"type": "Feature", "geometry": {"type": "Point", "coordinates": [90.3910316, 53.5654146]}, "properties": {}}, {"type": "Feature", "geometry": {"type": "Point", "coordinates": [91.2972195, 53.1961379]}, "properties": {}}, {"type": "Feature", "geometry": {"type": "Point", "coordinates": [90.4245671, 53.3310727]}, "properties": {}}, {"type": "Feature", "geometry": {"type": "Point", "coordinates": [90.7109635, 53.2400467]}, "properties": {}}, {"type": "Feature", "geometry": {"type": "Point", "coordinates": [91.1802642, 53.0883572]}, "properties": {}}, {"type": "Feature", "geometry": {"type": "Point", "coordinates": [89.711966, 52.7735307]}, "properties": {}}, {"type": "Feature", "geometry": {"type": "Point", "coordinates": [90.8898228, 53.8630814]}, "properties": {}}, {"type": "Feature", "geometry": {"type": "Point", "coordinates": [90.8272514, 53.0787335]}, "properties": {}}, {"type": "Feature", "geometry": {"type": "Point", "coordinates": [91.4661326, 53.732105]}, "properties": {}}, {"type": "Feature", "geometry": {"type": "Point", "coordinates": [89.8155648, 54.6320599]}, "properties": {}}, {"type": "Feature", "geometry": {"type": "Point", "coordinates": [91.3761038, 53.8452081]}, "properties": {}}, {"type": "Feature", "geometry": {"type": "Point", "coordinates": [90.1869781, 52.9535401]}, "properties": {}}, {"type": "Feature", "geometry": {"type": "Point", "coordinates": [90.5071423, 53.1141386]}, "properties": {}}, {"type": "Feature", "geometry": {"type": "Point", "coordinates": [91.5400758, 53.617706]}, "properties": {}}, {"type": "Feature", "geometry": {"type": "Point", "coordinates": [90.245309, 52.8783958]}, "properties": {}}, {"type": "Feature", "geometry": {"type": "Point", "coordinates": [88.8101506, 54.499281]}, "properties": {}}, {"type": "Feature", "geometry": {"type": "Point", "coordinates": [91.6421591, 53.5060393]}, "properties": {}}, {"type": "Feature", "geometry": {"type": "Point", "coordinates": [89.8645952, 52.9599756]}, "properties": {}}, {"type": "Feature", "geometry": {"type": "Point", "coordinates": [91.3699704, 53.6861527]}, "properties": {}}, {"type": "Feature", "geometry": {"type": "Point", "coordinates": [90.057672, 54.3203707]}, "properties": {}}, {"type": "Feature", "geometry": {"type": "Point", "coordinates": [89.7383646, 54.9531283]}, "properties": {}}, {"type": "Feature", "geometry": {"type": "Point", "coordinates": [90.8268596, 52.9918309]}, "properties": {}}, {"type": "Feature", "geometry": {"type": "Point", "coordinates": [89.6932396, 54.0842198]}, "properties": {}}, {"type": "Feature", "geometry": {"type": "Point", "coordinates": [89.5538077, 52.7878746]}, "properties": {}}, {"type": "Feature", "geometry": {"type": "Point", "coordinates": [91.0366554, 53.4465891]}, "properties": {}}, {"type": "Feature", "geometry": {"type": "Point", "coordinates": [90.4021189, 55.0379697]}, "properties": {}}, {"type": "Feature", "geometry": {"type": "Point", "coordinates": [90.5979007, 53.3878105]}, "properties": {}}, {"type": "Feature", "geometry": {"type": "Point", "coordinates": [91.4222105, 53.0731522]}, "properties": {}}, {"type": "Feature", "geometry": {"type": "Point", "coordinates": [90.6064038, 52.9470108]}, "properties": {}}, {"type": "Feature", "geometry": {"type": "Point", "coordinates": [91.2848179, 53.6202646]}, "properties": {}}, {"type": "Feature", "geometry": {"type": "Point", "coordinates": [91.3402101, 53.8357638]}, "properties": {}}, {"type": "Feature", "geometry": {"type": "Point", "coordinates": [91.2723632, 54.0964459]}, "properties": {}}, {"type": "Feature", "geometry": {"type": "Point", "coordinates": [90.3313936, 53.0158922]}, "properties": {}}, {"type": "Feature", "geometry": {"type": "Point", "coordinates": [90.4058207, 53.4652366]}, "properties": {}}, {"type": "Feature", "geometry": {"type": "Point", "coordinates": [89.7731372, 54.7963893]}, "properties": {}}, {"type": "Feature", "geometry": {"type": "Point", "coordinates": [91.4241037, 53.6985623]}, "properties": {}}, {"type": "Feature", "geometry": {"type": "Point", "coordinates": [91.1251485, 53.7890925]}, "properties": {}}, {"type": "Feature", "geometry": {"type": "Point", "coordinates": [89.9866728, 54.4997469]}, "properties": {}}, {"type": "Feature", "geometry": {"type": "Point", "coordinates": [89.9414195, 54.4397018]}, "properties": {}}, {"type": "Feature", "geometry": {"type": "Point", "coordinates": [90.5073404, 54.3898096]}, "properties": {}}, {"type": "Feature", "geometry": {"type": "Point", "coordinates": [90.963055, 54.1265471]}, "properties": {}}, {"type": "Feature", "geometry": {"type": "Point", "coordinates": [90.5629296, 53.1602586]}, "properties": {}}, {"type": "Feature", "geometry": {"type": "Point", "coordinates": [89.2855397, 54.6942247]}, "properties": {}}, {"type": "Feature", "geometry": {"type": "Point", "coordinates": [91.5671565, 53.2528899]}, "properties": {}}, {"type": "Feature", "geometry": {"type": "Point", "coordinates": [88.9750184, 53.6267934]}, "properties": {}}, {"type": "Feature", "geometry": {"type": "Point", "coordinates": [89.8001057, 53.0979446]}, "properties": {}}, {"type": "Feature", "geometry": {"type": "Point", "coordinates": [89.9190986, 54.318514]}, "properties": {}}, {"type": "Feature", "geometry": {"type": "Point", "coordinates": [91.4951572, 53.6629757]}, "properties": {}}, {"type": "Feature", "geometry": {"type": "Point", "coordinates": [89.3183005, 54.9696577]}, "properties": {}}, {"type": "Feature", "geometry": {"type": "Point", "coordinates": [89.2508451, 54.0802477]}, "properties": {}}, {"type": "Feature", "geometry": {"type": "Point", "coordinates": [90.1233249, 54.4875302]}, "properties": {}}, {"type": "Feature", "geometry": {"type": "Point", "coordinates": [90.4024843, 53.0275913]}, "properties": {}}, {"type": "Feature", "geometry": {"type": "Point", "coordinates": [90.7795041, 53.1918864]}, "properties": {}}, {"type": "Feature", "geometry": {"type": "Point", "coordinates": [90.9378309, 53.5151451]}, "properties": {}}, {"type": "Feature", "geometry": {"type": "Point", "coordinates": [90.0164566, 53.8894245]}, "properties": {}}, {"type": "Feature", "geometry": {"type": "Point", "coordinates": [91.2652176, 52.9765816]}, "properties": {}}, {"type": "Feature", "geometry": {"type": "Point", "coordinates": [91.3767283, 53.7691573]}, "properties": {}}, {"type": "Feature", "geometry": {"type": "Point", "coordinates": [91.4170687, 52.9901376]}, "properties": {}}, {"type": "Feature", "geometry": {"type": "Point", "coordinates": [89.865219, 55.0183881]}, "properties": {}}, {"type": "Feature", "geometry": {"type": "Point", "coordinates": [91.4346482, 53.7075869]}, "properties": {}}, {"type": "Feature", "geometry": {"type": "Point", "coordinates": [90.0617722, 53.0435382]}, "properties": {}}, {"type": "Feature", "geometry": {"type": "Point", "coordinates": [90.0368869, 52.8238637]}, "properties": {}}, {"type": "Feature", "geometry": {"type": "Point", "coordinates": [90.1015227, 53.2183087]}, "properties": {}}, {"type": "Feature", "geometry": {"type": "Point", "coordinates": [90.6251089, 54.2532362]}, "properties": {}}, {"type": "Feature", "geometry": {"type": "Point", "coordinates": [90.7089619, 54.5842046]}, "properties": {}}, {"type": "Feature", "geometry": {"type": "Point", "coordinates": [90.651521, 53.1627765]}, "properties": {}}, {"type": "Feature", "geometry": {"type": "Point", "coordinates": [91.4065685, 53.6861415]}, "properties": {}}, {"type": "Feature", "geometry": {"type": "Point", "coordinates": [90.2140672, 55.1038027]}, "properties": {}}, {"type": "Feature", "geometry": {"type": "Point", "coordinates": [91.2376632, 53.8161253]}, "properties": {}}, {"type": "Feature", "geometry": {"type": "Point", "coordinates": [90.685724, 54.8362292]}, "properties": {}}, {"type": "Feature", "geometry": {"type": "Point", "coordinates": [90.3304906, 54.18965]}, "properties": {}}, {"type": "Feature", "geometry": {"type": "Point", "coordinates": [89.5015557, 55.0276943]}, "properties": {}}, {"type": "Feature", "geometry": {"type": "Point", "coordinates": [91.3924047, 53.1277949]}, "properties": {}}, {"type": "Feature", "geometry": {"type": "Point", "coordinates": [91.068746, 53.0252268]}, "properties": {}}, {"type": "Feature", "geometry": {"type": "Point", "coordinates": [90.3448035, 53.2171273]}, "properties": {}}, {"type": "Feature", "geometry": {"type": "Point", "coordinates": [89.8209665, 54.4987836]}, "properties": {}}, {"type": "Feature", "geometry": {"type": "Point", "coordinates": [91.2134969, 53.6443096]}, "properties": {}}, {"type": "Feature", "geometry": {"type": "Point", "coordinates": [89.6997256, 52.2804948]}, "properties": {}}, {"type": "Feature", "geometry": {"type": "Point", "coordinates": [89.6381855, 52.6686869]}, "properties": {}}, {"type": "Feature", "geometry": {"type": "Point", "coordinates": [91.3113323, 53.6537761]}, "properties": {}}, {"type": "Feature", "geometry": {"type": "Point", "coordinates": [91.0772744, 54.0570286]}, "properties": {}}, {"type": "Feature", "geometry": {"type": "Point", "coordinates": [91.3798443, 53.2691362]}, "properties": {}}, {"type": "Feature", "geometry": {"type": "Point", "coordinates": [90.7336805, 54.1473931]}, "properties": {}}, {"type": "Feature", "geometry": {"type": "Point", "coordinates": [89.9545389, 53.1151246]}, "properties": {}}, {"type": "Feature", "geometry": {"type": "Point", "coordinates": [89.2030558, 53.3193588]}, "properties": {}}, {"type": "Feature", "geometry": {"type": "Point", "coordinates": [90.2850768, 52.6990272]}, "properties": {}}, {"type": "Feature", "geometry": {"type": "Point", "coordinates": [89.1751887, 52.5668866]}, "properties": {}}, {"type": "Feature", "geometry": {"type": "Point", "coordinates": [90.151116, 52.6557332]}, "properties": {}}, {"type": "Feature", "geometry": {"type": "Point", "coordinates": [89.2327315, 54.5321631]}, "properties": {}}, {"type": "Feature", "geometry": {"type": "Point", "coordinates": [89.9381328, 54.3407455]}, "properties": {}}, {"type": "Feature", "geometry": {"type": "Point", "coordinates": [89.8469457, 52.8741573]}, "properties": {}}, {"type": "Feature", "geometry": {"type": "Point", "coordinates": [89.9413841, 54.3856576]}, "properties": {}}, {"type": "Feature", "geometry": {"type": "Point", "coordinates": [91.3537093, 52.9147415]}, "properties": {}}, {"type": "Feature", "geometry": {"type": "Point", "coordinates": [91.3456713, 53.7077253]}, "properties": {}}, {"type": "Feature", "geometry": {"type": "Point", "coordinates": [91.422903, 53.7256572]}, "properties": {}}, {"type": "Feature", "geometry": {"type": "Point", "coordinates": [91.4777813, 53.6580845]}, "properties": {}}, {"type": "Feature", "geometry": {"type": "Point", "coordinates": [89.8306421, 52.783622]}, "properties": {}}, {"type": "Feature", "geometry": {"type": "Point", "coordinates": [91.3057496, 53.8089712]}, "properties": {}}, {"type": "Feature", "geometry": {"type": "Point", "coordinates": [91.1258047, 53.5934903]}, "properties": {}}, {"type": "Feature", "geometry": {"type": "Point", "coordinates": [89.7930622, 54.8893438]}, "properties": {}}, {"type": "Feature", "geometry": {"type": "Point", "coordinates": [89.8779499, 52.7996139]}, "properties": {}}, {"type": "Feature", "geometry": {"type": "Point", "coordinates": [91.4826396, 53.7118926]}, "properties": {}}, {"type": "Feature", "geometry": {"type": "Point", "coordinates": [91.5588789, 53.4126576]}, "properties": {}}, {"type": "Feature", "geometry": {"type": "Point", "coordinates": [90.5024444, 53.6529857]}, "properties": {}}, {"type": "Feature", "geometry": {"type": "Point", "coordinates": [91.2546972, 53.1105013]}, "properties": {}}, {"type": "Feature", "geometry": {"type": "Point", "coordinates": [91.3151298, 53.8441391]}, "properties": {}}, {"type": "Feature", "geometry": {"type": "Point", "coordinates": [89.9598724, 54.5011902]}, "properties": {}}, {"type": "Feature", "geometry": {"type": "Point", "coordinates": [89.8885943, 53.3362905]}, "properties": {}}, {"type": "Feature", "geometry": {"type": "Point", "coordinates": [89.6609249, 54.5446692]}, "properties": {}}, {"type": "Feature", "geometry": {"type": "Point", "coordinates": [90.927297, 53.0478055]}, "properties": {}}, {"type": "Feature", "geometry": {"type": "Point", "coordinates": [89.9301765, 52.3599068]}, "properties": {}}, {"type": "Feature", "geometry": {"type": "Point", "coordinates": [89.7114066, 53.441839]}, "properties": {}}, {"type": "Feature", "geometry": {"type": "Point", "coordinates": [89.5282177, 54.2040618]}, "properties": {}}, {"type": "Feature", "geometry": {"type": "Point", "coordinates": [91.0011872, 54.4591982]}, "properties": {}}, {"type": "Feature", "geometry": {"type": "Point", "coordinates": [90.8887661, 53.2639229]}, "properties": {}}, {"type": "Feature", "geometry": {"type": "Point", "coordinates": [90.0866205, 52.8620295]}, "properties": {}}, {"type": "Feature", "geometry": {"type": "Point", "coordinates": [89.4814183, 54.5558877]}, "properties": {}}, {"type": "Feature", "geometry": {"type": "Point", "coordinates": [91.3138867, 53.7755454]}, "properties": {}}, {"type": "Feature", "geometry": {"type": "Point", "coordinates": [89.7613257, 52.7536359]}, "properties": {}}, {"type": "Feature", "geometry": {"type": "Point", "coordinates": [90.1745693, 54.6176933]}, "properties": {}}, {"type": "Feature", "geometry": {"type": "Point", "coordinates": [91.6530211, 53.4075547]}, "properties": {}}, {"type": "Feature", "geometry": {"type": "Point", "coordinates": [91.3560577, 53.7776323]}, "properties": {}}, {"type": "Feature", "geometry": {"type": "Point", "coordinates": [89.8071372, 53.0179428]}, "properties": {}}, {"type": "Feature", "geometry": {"type": "Point", "coordinates": [90.0381985, 53.2211841]}, "properties": {}}, {"type": "Feature", "geometry": {"type": "Point", "coordinates": [90.7836129, 54.5841292]}, "properties": {}}, {"type": "Feature", "geometry": {"type": "Point", "coordinates": [90.4529821, 53.3455779]}, "properties": {}}, {"type": "Feature", "geometry": {"type": "Point", "coordinates": [90.2951899, 53.6696524]}, "properties": {}}, {"type": "Feature", "geometry": {"type": "Point", "coordinates": [89.9021304, 52.788397]}, "properties": {}}, {"type": "Feature", "geometry": {"type": "Point", "coordinates": [91.0367233, 53.5783618]}, "properties": {}}, {"type": "Feature", "geometry": {"type": "Point", "coordinates": [91.4546615, 53.7412496]}, "properties": {}}, {"type": "Feature", "geometry": {"type": "Point", "coordinates": [90.179794, 55.0491796]}, "properties": {}}, {"type": "Feature", "geometry": {"type": "Point", "coordinates": [89.8073022, 54.9937633]}, "properties": {}}, {"type": "Feature", "geometry": {"type": "Point", "coordinates": [90.2489902, 54.0020171]}, "properties": {}}, {"type": "Feature", "geometry": {"type": "Point", "coordinates": [91.3855786, 53.5910338]}, "properties": {}}, {"type": "Feature", "geometry": {"type": "Point", "coordinates": [89.7802966, 52.9616864]}, "properties": {}}, {"type": "Feature", "geometry": {"type": "Point", "coordinates": [90.2748376, 54.3019499]}, "properties": {}}, {"type": "Feature", "geometry": {"type": "Point", "coordinates": [90.095948, 52.6515007]}, "properties": {}}, {"type": "Feature", "geometry": {"type": "Point", "coordinates": [91.3644771, 53.8303992]}, "properties": {}}, {"type": "Feature", "geometry": {"type": "Point", "coordinates": [90.3295049, 54.7060555]}, "properties": {}}, {"type": "Feature", "geometry": {"type": "Point", "coordinates": [88.9696105, 54.8608368]}, "properties": {}}, {"type": "Feature", "geometry": {"type": "Point", "coordinates": [90.4119905, 53.1377519]}, "properties": {}}, {"type": "Feature", "geometry": {"type": "Point", "coordinates": [91.7522716, 53.2203869]}, "properties": {}}, {"type": "Feature", "geometry": {"type": "Point", "coordinates": [90.5093228, 53.3479597]}, "properties": {}}, {"type": "Feature", "geometry": {"type": "Point", "coordinates": [89.434709, 54.4050822]}, "properties": {}}, {"type": "Feature", "geometry": {"type": "Point", "coordinates": [89.0775561, 53.3472082]}, "properties": {}}, {"type": "Feature", "geometry": {"type": "Point", "coordinates": [91.3077336, 53.3137719]}, "properties": {}}, {"type": "Feature", "geometry": {"type": "Point", "coordinates": [91.1271617, 54.2178731]}, "properties": {}}, {"type": "Feature", "geometry": {"type": "Point", "coordinates": [89.1227012, 54.8275675]}, "properties": {}}, {"type": "Feature", "geometry": {"type": "Point", "coordinates": [89.9914535, 52.8126162]}, "properties": {}}, {"type": "Feature", "geometry": {"type": "Point", "coordinates": [89.3616355, 54.7731667]}, "properties": {}}, {"type": "Feature", "geometry": {"type": "Point", "coordinates": [91.34851, 53.6834479]}, "properties": {}}, {"type": "Feature", "geometry": {"type": "Point", "coordinates": [88.9270183, 54.4877827]}, "properties": {}}, {"type": "Feature", "geometry": {"type": "Point", "coordinates": [90.7898666, 54.8141783]}, "properties": {}}, {"type": "Feature", "geometry": {"type": "Point", "coordinates": [90.375409, 52.7136121]}, "properties": {}}, {"type": "Feature", "geometry": {"type": "Point", "coordinates": [91.2781713, 53.8301389]}, "properties": {}}, {"type": "Feature", "geometry": {"type": "Point", "coordinates": [91.3543697, 53.8518443]}, "properties": {}}, {"type": "Feature", "geometry": {"type": "Point", "coordinates": [90.5038695, 54.1256369]}, "properties": {}}, {"type": "Feature", "geometry": {"type": "Point", "coordinates": [90.2440397, 53.2435819]}, "properties": {}}, {"type": "Feature", "geometry": {"type": "Point", "coordinates": [90.7855031, 53.3267223]}, "properties": {}}, {"type": "Feature", "geometry": {"type": "Point", "coordinates": [90.6931759, 53.7874797]}, "properties": {}}, {"type": "Feature", "geometry": {"type": "Point", "coordinates": [89.9269819, 52.8506224]}, "properties": {}}, {"type": "Feature", "geometry": {"type": "Point", "coordinates": [91.2804383, 53.0783738]}, "properties": {}}, {"type": "Feature", "geometry": {"type": "Point", "coordinates": [91.325285, 53.0658446]}, "properties": {}}, {"type": "Feature", "geometry": {"type": "Point", "coordinates": [89.481513, 52.8094501]}, "properties": {}}, {"type": "Feature", "geometry": {"type": "Point", "coordinates": [90.5369241, 53.1375898]}, "properties": {}}, {"type": "Feature", "geometry": {"type": "Point", "coordinates": [89.9749035, 53.2605302]}, "properties": {}}, {"type": "Feature", "geometry": {"type": "Point", "coordinates": [91.4053497, 53.0735478]}, "properties": {}}, {"type": "Feature", "geometry": {"type": "Point", "coordinates": [89.7325246, 52.9909621]}, "properties": {}}, {"type": "Feature", "geometry": {"type": "Point", "coordinates": [90.5607377, 53.4450383]}, "properties": {}}, {"type": "Feature", "geometry": {"type": "Point", "coordinates": [91.2719917, 53.7727284]}, "properties": {}}, {"type": "Feature", "geometry": {"type": "Point", "coordinates": [90.3480189, 54.1052684]}, "properties": {}}, {"type": "Feature", "geometry": {"type": "Point", "coordinates": [90.0559698, 53.579645]}, "properties": {}}, {"type": "Feature", "geometry": {"type": "Point", "coordinates": [91.2275862, 53.8160813]}, "properties": {}}, {"type": "Feature", "geometry": {"type": "Point", "coordinates": [88.7648106, 54.934983]}, "properties": {}}, {"type": "Feature", "geometry": {"type": "Point", "coordinates": [90.5017258, 52.9311857]}, "properties": {}}, {"type": "Feature", "geometry": {"type": "Point", "coordinates": [91.4340016, 53.0475144]}, "properties": {}}, {"type": "Feature", "geometry": {"type": "Point", "coordinates": [90.2849025, 52.8759941]}, "properties": {}}, {"type": "Feature", "geometry": {"type": "Point", "coordinates": [91.2837722, 53.6475182]}, "properties": {}}, {"type": "Feature", "geometry": {"type": "Point", "coordinates": [89.5817373, 54.9664707]}, "properties": {}}, {"type": "Feature", "geometry": {"type": "Point", "coordinates": [89.8309969, 52.7528509]}, "properties": {}}, {"type": "Feature", "geometry": {"type": "Point", "coordinates": [90.4346107, 53.008249]}, "properties": {}}, {"type": "Feature", "geometry": {"type": "Point", "coordinates": [91.3485745, 53.5787845]}, "properties": {}}, {"type": "Feature", "geometry": {"type": "Point", "coordinates": [90.8834137, 53.3916998]}, "properties": {}}, {"type": "Feature", "geometry": {"type": "Point", "coordinates": [90.9506528, 53.0479671]}, "properties": {}}, {"type": "Feature", "geometry": {"type": "Point", "coordinates": [91.391237, 53.7650229]}, "properties": {}}, {"type": "Feature", "geometry": {"type": "Point", "coordinates": [90.0614577, 54.5149218]}, "properties": {}}, {"type": "Feature", "geometry": {"type": "Point", "coordinates": [91.3997526, 53.8253396]}, "properties": {}}, {"type": "Feature", "geometry": {"type": "Point", "coordinates": [91.3750633, 53.3816923]}, "properties": {}}, {"type": "Feature", "geometry": {"type": "Point", "coordinates": [89.6956418, 54.6778935]}, "properties": {}}, {"type": "Feature", "geometry": {"type": "Point", "coordinates": [91.328791, 53.6468061]}, "properties": {}}, {"type": "Feature", "geometry": {"type": "Point", "coordinates": [89.5925814, 52.826147]}, "properties": {}}, {"type": "Feature", "geometry": {"type": "Point", "coordinates": [91.1187948, 53.5213652]}, "properties": {}}, {"type": "Feature", "geometry": {"type": "Point", "coordinates": [89.8774139, 53.3262181]}, "properties": {}}, {"type": "Feature", "geometry": {"type": "Point", "coordinates": [90.1481577, 54.4908522]}, "properties": {}}, {"type": "Feature", "geometry": {"type": "Point", "coordinates": [91.5232271, 53.6161877]}, "properties": {}}, {"type": "Feature", "geometry": {"type": "Point", "coordinates": [90.4512291, 53.3965219]}, "properties": {}}, {"type": "Feature", "geometry": {"type": "Point", "coordinates": [91.4642446, 52.9065236]}, "properties": {}}, {"type": "Feature", "geometry": {"type": "Point", "coordinates": [91.5325577, 53.6743187]}, "properties": {}}, {"type": "Feature", "geometry": {"type": "Point", "coordinates": [91.3755982, 53.6740738]}, "properties": {}}, {"type": "Feature", "geometry": {"type": "Point", "coordinates": [90.3047256, 53.4616214]}, "properties": {}}, {"type": "Feature", "geometry": {"type": "Point", "coordinates": [91.319029, 53.8218532]}, "properties": {}}, {"type": "Feature", "geometry": {"type": "Point", "coordinates": [89.9033997, 53.3611344]}, "properties": {}}, {"type": "Feature", "geometry": {"type": "Point", "coordinates": [89.8867976, 52.7839568]}, "properties": {}}, {"type": "Feature", "geometry": {"type": "Point", "coordinates": [91.3634522, 53.7128158]}, "properties": {}}, {"type": "Feature", "geometry": {"type": "Point", "coordinates": [91.3908088, 53.6818115]}, "properties": {}}, {"type": "Feature", "geometry": {"type": "Point", "coordinates": [90.4491114, 54.2424861]}, "properties": {}}, {"type": "Feature", "geometry": {"type": "Point", "coordinates": [91.2627231, 53.8198109]}, "properties": {}}, {"type": "Feature", "geometry": {"type": "Point", "coordinates": [91.2025624, 53.5533507]}, "properties": {}}, {"type": "Feature", "geometry": {"type": "Point", "coordinates": [91.0558066, 53.4070392]}, "properties": {}}, {"type": "Feature", "geometry": {"type": "Point", "coordinates": [90.5237755, 53.1183952]}, "properties": {}}, {"type": "Feature", "geometry": {"type": "Point", "coordinates": [91.4308019, 53.1132157]}, "properties": {}}, {"type": "Feature", "geometry": {"type": "Point", "coordinates": [91.3982605, 53.1089487]}, "properties": {}}, {"type": "Feature", "geometry": {"type": "Point", "coordinates": [91.1902858, 53.455066]}, "properties": {}}, {"type": "Feature", "geometry": {"type": "Point", "coordinates": [91.1895619, 53.9042599]}, "properties": {}}, {"type": "Feature", "geometry": {"type": "Point", "coordinates": [91.0763933, 53.5035725]}, "properties": {}}, {"type": "Feature", "geometry": {"type": "Point", "coordinates": [89.8746046, 52.9004578]}, "properties": {}}, {"type": "Feature", "geometry": {"type": "Point", "coordinates": [89.8358454, 54.9519216]}, "properties": {}}, {"type": "Feature", "geometry": {"type": "Point", "coordinates": [90.0751951, 52.6177363]}, "properties": {}}, {"type": "Feature", "geometry": {"type": "Point", "coordinates": [91.3946669, 53.7304935]}, "properties": {}}, {"type": "Feature", "geometry": {"type": "Point", "coordinates": [91.2978512, 53.5524211]}, "properties": {}}, {"type": "Feature", "geometry": {"type": "Point", "coordinates": [91.3689268, 52.8762075]}, "properties": {}}, {"type": "Feature", "geometry": {"type": "Point", "coordinates": [91.4470746, 53.7279815]}, "properties": {}}, {"type": "Feature", "geometry": {"type": "Point", "coordinates": [89.8463505, 55.035024]}, "properties": {}}, {"type": "Feature", "geometry": {"type": "Point", "coordinates": [89.8633058, 54.2354384]}, "properties": {}}, {"type": "Feature", "geometry": {"type": "Point", "coordinates": [91.3211352, 53.905547]}, "properties": {}}, {"type": "Feature", "geometry": {"type": "Point", "coordinates": [91.4060598, 53.9259961]}, "properties": {}}, {"type": "Feature", "geometry": {"type": "Point", "coordinates": [90.3884519, 53.0329791]}, "properties": {}}, {"type": "Feature", "geometry": {"type": "Point", "coordinates": [89.4253527, 54.7289773]}, "properties": {}}, {"type": "Feature", "geometry": {"type": "Point", "coordinates": [90.860513, 54.2179925]}, "properties": {}}, {"type": "Feature", "geometry": {"type": "Point", "coordinates": [89.5720363, 53.3448056]}, "properties": {}}, {"type": "Feature", "geometry": {"type": "Point", "coordinates": [90.7755135, 53.9016798]}, "properties": {}}, {"type": "Feature", "geometry": {"type": "Point", "coordinates": [91.2135306, 52.9003624]}, "properties": {}}, {"type": "Feature", "geometry": {"type": "Point", "coordinates": [91.3120436, 53.7896788]}, "properties": {}}, {"type": "Feature", "geometry": {"type": "Point", "coordinates": [90.4931027, 53.106804]}, "properties": {}}, {"type": "Feature", "geometry": {"type": "Point", "coordinates": [91.3522943, 53.7945387]}, "properties": {}}, {"type": "Feature", "geometry": {"type": "Point", "coordinates": [91.1486211, 53.7668768]}, "properties": {}}, {"type": "Feature", "geometry": {"type": "Point", "coordinates": [91.4759646, 53.0039947]}, "properties": {}}, {"type": "Feature", "geometry": {"type": "Point", "coordinates": [91.4549522, 53.6448961]}, "properties": {}}, {"type": "Feature", "geometry": {"type": "Point", "coordinates": [90.012917, 54.5046762]}, "properties": {}}, {"type": "Feature", "geometry": {"type": "Point", "coordinates": [89.4550375, 52.630489]}, "properties": {}}, {"type": "Feature", "geometry": {"type": "Point", "coordinates": [89.7560827, 54.6344271]}, "properties": {}}, {"type": "Feature", "geometry": {"type": "Point", "coordinates": [91.1625989, 53.5196255]}, "properties": {}}, {"type": "Feature", "geometry": {"type": "Point", "coordinates": [91.4310909, 53.7389643]}, "properties": {}}, {"type": "Feature", "geometry": {"type": "Point", "coordinates": [91.2971226, 53.8240574]}, "properties": {}}, {"type": "Feature", "geometry": {"type": "Point", "coordinates": [89.8469868, 54.8881638]}, "properties": {}}, {"type": "Feature", "geometry": {"type": "Point", "coordinates": [90.2358166, 53.8387386]}, "properties": {}}, {"type": "Feature", "geometry": {"type": "Point", "coordinates": [91.267316, 53.9144117]}, "properties": {}}, {"type": "Feature", "geometry": {"type": "Point", "coordinates": [89.8863046, 53.3569536]}, "properties": {}}, {"type": "Feature", "geometry": {"type": "Point", "coordinates": [90.709874, 52.9288131]}, "properties": {}}, {"type": "Feature", "geometry": {"type": "Point", "coordinates": [91.5041836, 53.7112153]}, "properties": {}}, {"type": "Feature", "geometry": {"type": "Point", "coordinates": [91.0876639, 54.4304666]}, "properties": {}}, {"type": "Feature", "geometry": {"type": "Point", "coordinates": [90.2965234, 53.9875546]}, "properties": {}}, {"type": "Feature", "geometry": {"type": "Point", "coordinates": [90.2411143, 55.0128966]}, "properties": {}}, {"type": "Feature", "geometry": {"type": "Point", "coordinates": [90.7849538, 53.0787215]}, "properties": {}}, {"type": "Feature", "geometry": {"type": "Point", "coordinates": [89.4340166, 52.7404805]}, "properties": {}}, {"type": "Feature", "geometry": {"type": "Point", "coordinates": [91.3488354, 53.1828994]}, "properties": {}}, {"type": "Feature", "geometry": {"type": "Point", "coordinates": [91.4922088, 52.9795525]}, "properties": {}}, {"type": "Feature", "geometry": {"type": "Point", "coordinates": [91.2714451, 53.6699249]}, "properties": {}}, {"type": "Feature", "geometry": {"type": "Point", "coordinates": [89.2243358, 54.862628]}, "properties": {}}, {"type": "Feature", "geometry": {"type": "Point", "coordinates": [90.8338245, 54.231294]}, "properties": {}}, {"type": "Feature", "geometry": {"type": "Point", "coordinates": [90.2986022, 52.9977331]}, "properties": {}}, {"type": "Feature", "geometry": {"type": "Point", "coordinates": [91.3831558, 53.8570835]}, "properties": {}}, {"type": "Feature", "geometry": {"type": "Point", "coordinates": [91.1171835, 53.4331498]}, "properties": {}}, {"type": "Feature", "geometry": {"type": "Point", "coordinates": [91.0145026, 53.3856133]}, "properties": {}}, {"type": "Feature", "geometry": {"type": "Point", "coordinates": [91.4405654, 53.6983061]}, "properties": {}}, {"type": "Feature", "geometry": {"type": "Point", "coordinates": [91.4658918, 53.7138073]}, "properties": {}}, {"type": "Feature", "geometry": {"type": "Point", "coordinates": [89.2159651, 54.606826]}, "properties": {}}, {"type": "Feature", "geometry": {"type": "Point", "coordinates": [91.5512834, 53.6652973]}, "properties": {}}, {"type": "Feature", "geometry": {"type": "Point", "coordinates": [90.9217957, 53.9429584]}, "properties": {}}, {"type": "Feature", "geometry": {"type": "Point", "coordinates": [90.7314356, 53.6174158]}, "properties": {}}]}