{
"type": "FeatureCollection",
"name": "social_infrastructure_points",
"crs": { "type": "name", "properties": { "name": "urn:ogc:def:crs:OGC:1.3:CRS84" } },
"features": [
{ "type": "Feature", "properties": { "element": "node", "id": 1160854511, "amenity": "school", "name": "Школа№2" }, "geometry": { "type": "Point", "coordinates": [ 90.4017453, 53.0240495 ] } },
{ "type": "Feature", "properties": { "element": "node", "id": 1160857635, "amenity": "hospital", "name": "Больница" }, "geometry": { "type": "Point", "coordinates": [ 90.4040451, 53.0250384 ] } },
{ "type": "Feature", "properties": { "element": "node", "id": 1589745514, "amenity": "hospital", "name": null }, "geometry": { "type": "Point", "coordinates": [ 91.5507548, 53.6630365 ] } },
{ "type": "Feature", "properties": { "element": "node", "id": 1589769642, "amenity": "school", "name": "Средняя школа" }, "geometry": { "type": "Point", "coordinates": [ 91.5469897, 53.6651335 ] } },
{ "type": "Feature", "properties": { "element": "node", "id": 1590302754, "amenity": "school", "name": "Усть-Ташебинская НОШ" }, "geometry": { "type": "Point", "coordinates": [ 91.3923266, 53.7389586 ] } },
{ "type": "Feature", "properties": { "element": "node", "id": 1618573729, "amenity": "hospital", "name": "Варикоза нет" }, "geometry": { "type": "Point", "coordinates": [ 91.4370474, 53.7296967 ] } },
{ "type": "Feature", "properties": { "element": "node", "id": 1618743018, "amenity": "hospital", "name": "Республиканский центр крови" }, "geometry": { "type": "Point", "coordinates": [ 91.4639994, 53.7221874 ] } },
{ "type": "Feature", "properties": { "element": "node", "id": 1619460322, "amenity": "hospital", "name": "Наркологический диспансер" }, "geometry": { "type": "Point", "coordinates": [ 91.4336943, 53.7307066 ] } },
{ "type": "Feature", "properties": { "element": "node", "id": 1619761520, "amenity": "hospital", "name": "Хакасская Республиканская Больница" }, "geometry": { "type": "Point", "coordinates": [ 91.4643684, 53.724216 ] } },
{ "type": "Feature", "properties": { "element": "node", "id": 1619762090, "amenity": "hospital", "name": "Хакасская Республиканская Больница" }, "geometry": { "type": "Point", "coordinates": [ 91.465629, 53.7241843 ] } },
{ "type": "Feature", "properties": { "element": "node", "id": 1624346089, "amenity": "clinic", "name": "Филиал детской поликлиники" }, "geometry": { "type": "Point", "coordinates": [ 91.33395, 53.8250214 ] } },
{ "type": "Feature", "properties": { "element": "node", "id": 1910965158, "amenity": "kindergarten", "name": "Семейные группы" }, "geometry": { "type": "Point", "coordinates": [ 90.0843109, 52.6521343 ] } },
{ "type": "Feature", "properties": { "element": "node", "id": 2155598234, "amenity": "school", "name": "Школа№1" }, "geometry": { "type": "Point", "coordinates": [ 90.3915918, 53.0316059 ] } },
{ "type": "Feature", "properties": { "element": "node", "id": 3681927680, "amenity": "school", "name": null }, "geometry": { "type": "Point", "coordinates": [ 91.8041526, 53.4359186 ] } },
{ "type": "Feature", "properties": { "element": "node", "id": 3682361293, "amenity": "clinic", "name": null }, "geometry": { "type": "Point", "coordinates": [ 91.8816561, 53.3418785 ] } },
{ "type": "Feature", "properties": { "element": "node", "id": 3683506941, "amenity": "school", "name": null }, "geometry": { "type": "Point", "coordinates": [ 91.6355086, 53.5056067 ] } },
{ "type": "Feature", "properties": { "element": "node", "id": 3685328815, "amenity": "kindergarten", "name": null }, "geometry": { "type": "Point", "coordinates": [ 91.6517103, 53.1647817 ] } },
{ "type": "Feature", "properties": { "element": "node", "id": 3685328861, "amenity": "school", "name": null }, "geometry": { "type": "Point", "coordinates": [ 91.6531727, 53.1654415 ] } },
{ "type": "Feature", "properties": { "element": "node", "id": 4118379692, "amenity": "hospital", "name": "Городская больница " }, "geometry": { "type": "Point", "coordinates": [ 90.2505498, 53.9958329 ] } },
{ "type": "Feature", "properties": { "element": "node", "id": 4118397190, "amenity": "clinic", "name": "Поликлиника " }, "geometry": { "type": "Point", "coordinates": [ 90.2538882, 54.0007777 ] } },
{ "type": "Feature", "properties": { "element": "node", "id": 4118425389, "amenity": "kindergarten", "name": null }, "geometry": { "type": "Point", "coordinates": [ 90.2522281, 53.9986901 ] } },
{ "type": "Feature", "properties": { "element": "node", "id": 4373178089, "amenity": "clinic", "name": "Женская городская консультация" }, "geometry": { "type": "Point", "coordinates": [ 91.3165556, 53.8308802 ] } },
{ "type": "Feature", "properties": { "element": "node", "id": 4415824490, "amenity": "clinic", "name": null }, "geometry": { "type": "Point", "coordinates": [ 91.4226983, 52.8544759 ] } },
{ "type": "Feature", "properties": { "element": "node", "id": 4633821891, "amenity": "school", "name": "Музыкальная школа" }, "geometry": { "type": "Point", "coordinates": [ 90.0949084, 52.651744 ] } },
{ "type": "Feature", "properties": { "element": "node", "id": 4636739789, "amenity": "clinic", "name": "Городская больница" }, "geometry": { "type": "Point", "coordinates": [ 90.1182469, 52.6466121 ] } },
{ "type": "Feature", "properties": { "element": "node", "id": 5062320856, "amenity": "school", "name": "Троицкая средняя общеобразовательная школа" }, "geometry": { "type": "Point", "coordinates": [ 91.0880225, 54.2803121 ] } },
{ "type": "Feature", "properties": { "element": "node", "id": 5259816521, "amenity": "clinic", "name": "Зубная поликлиника" }, "geometry": { "type": "Point", "coordinates": [ 91.4349586, 53.7159507 ] } },
{ "type": "Feature", "properties": { "element": "node", "id": 5420001521, "amenity": "hospital", "name": "Маинская больница" }, "geometry": { "type": "Point", "coordinates": [ 91.4854824, 53.001952 ] } },
{ "type": "Feature", "properties": { "element": "node", "id": 6795418303, "amenity": "school", "name": "Бородинская СОШ" }, "geometry": { "type": "Point", "coordinates": [ 91.1277416, 54.095174 ] } },
{ "type": "Feature", "properties": { "element": "node", "id": 6795418304, "amenity": "hospital", "name": "Бородинская больница" }, "geometry": { "type": "Point", "coordinates": [ 91.1348712, 54.1002235 ] } },
{ "type": "Feature", "properties": { "element": "node", "id": 7476487400, "amenity": "school", "name": "Балыксинская средняя школа" }, "geometry": { "type": "Point", "coordinates": [ 89.1321747, 53.415701 ] } },
{ "type": "Feature", "properties": { "element": "node", "id": 8004586694, "amenity": "clinic", "name": "Детская городская поликлиника" }, "geometry": { "type": "Point", "coordinates": [ 91.2167555, 53.8144394 ] } },
{ "type": "Feature", "properties": { "element": "node", "id": 8634648717, "amenity": "school", "name": "Средняя общеобразовательная школа посёлка Аскиз" }, "geometry": { "type": "Point", "coordinates": [ 90.430787, 53.1356391 ] } },
{ "type": "Feature", "properties": { "element": "node", "id": 8981930249, "amenity": "school", "name": null }, "geometry": { "type": "Point", "coordinates": [ 91.432496, 53.7300647 ] } },
{ "type": "Feature", "properties": { "element": "node", "id": 9298349565, "amenity": "hospital", "name": "ГБУЗ РХ Абаканская межрайонная клиническая больница" }, "geometry": { "type": "Point", "coordinates": [ 91.464315, 53.7133065 ] } },
{ "type": "Feature", "properties": { "element": "node", "id": 9298389643, "amenity": "kindergarten", "name": "Кристаллик" }, "geometry": { "type": "Point", "coordinates": [ 91.4604246, 53.7177423 ] } },
{ "type": "Feature", "properties": { "element": "node", "id": 10844125265, "amenity": "clinic", "name": "Прогресс" }, "geometry": { "type": "Point", "coordinates": [ 91.4409014, 53.7287518 ] } },
{ "type": "Feature", "properties": { "element": "node", "id": 11028365878, "amenity": "school", "name": "Школа №1" }, "geometry": { "type": "Point", "coordinates": [ 89.8834073, 52.8053423 ] } },
{ "type": "Feature", "properties": { "element": "node", "id": 11217088344, "amenity": "school", "name": "Проффесиональное училище №5" }, "geometry": { "type": "Point", "coordinates": [ 91.40518, 53.716211 ] } },
{ "type": "Feature", "properties": { "element": "node", "id": 12178795535, "amenity": "school", "name": "Кайбальская СОШ" }, "geometry": { "type": "Point", "coordinates": [ 91.4729699, 53.6581076 ] } },
{ "type": "Feature", "properties": { "element": "node", "id": 12178795538, "amenity": "kindergarten", "name": "Солнышко" }, "geometry": { "type": "Point", "coordinates": [ 91.4699149, 53.6580583 ] } },
{ "type": "Feature", "properties": { "element": "node", "id": 12182668902, "amenity": "school", "name": "МБОУ СОШ №19" }, "geometry": { "type": "Point", "coordinates": [ 91.4335997, 53.7227774 ] } },
{ "type": "Feature", "properties": { "element": "node", "id": 12182668930, "amenity": "hospital", "name": "Республиканская детская клиническая больница" }, "geometry": { "type": "Point", "coordinates": [ 91.4265576, 53.7359885 ] } },
{ "type": "Feature", "properties": { "element": "node", "id": 12182668957, "amenity": "school", "name": "Школа №33" }, "geometry": { "type": "Point", "coordinates": [ 91.4100516, 53.7291988 ] } },
{ "type": "Feature", "properties": { "element": "node", "id": 12183423149, "amenity": "kindergarten", "name": "Феденька" }, "geometry": { "type": "Point", "coordinates": [ 91.4191812, 53.6888444 ] } },
{ "type": "Feature", "properties": { "element": "node", "id": 12183423166, "amenity": "school", "name": "Школа №32" }, "geometry": { "type": "Point", "coordinates": [ 91.3779123, 53.6773289 ] } },
{ "type": "Feature", "properties": { "element": "node", "id": 12185451279, "amenity": "school", "name": "Чапаевская школа" }, "geometry": { "type": "Point", "coordinates": [ 91.3361737, 53.6499019 ] } },
{ "type": "Feature", "properties": { "element": "node", "id": 12185451328, "amenity": "school", "name": "Сапоговская школа" }, "geometry": { "type": "Point", "coordinates": [ 91.2856179, 53.6181756 ] } },
{ "type": "Feature", "properties": { "element": "node", "id": 12241767665, "amenity": "school", "name": "МБОУ СОШ №18" }, "geometry": { "type": "Point", "coordinates": [ 91.4354754, 53.7024708 ] } },
{ "type": "Feature", "properties": { "element": "node", "id": 12873919177, "amenity": "school", "name": null }, "geometry": { "type": "Point", "coordinates": [ 91.404907, 53.7578501 ] } },
{ "type": "Feature", "properties": { "element": "node", "id": 12945143214, "amenity": "school", "name": "Ташебинская СОШ" }, "geometry": { "type": "Point", "coordinates": [ 91.3033039, 53.6799351 ] } },
{ "type": "Feature", "properties": { "element": "node", "id": 12945143259, "amenity": "kindergarten", "name": "Детский сад" }, "geometry": { "type": "Point", "coordinates": [ 91.215758, 53.6508379 ] } },
{ "type": "Feature", "properties": { "element": "node", "id": 12945143260, "amenity": "school", "name": null }, "geometry": { "type": "Point", "coordinates": [ 91.2130951, 53.6494042 ] } },
{ "type": "Feature", "properties": { "element": "node", "id": 12945143275, "amenity": "school", "name": null }, "geometry": { "type": "Point", "coordinates": [ 91.1841548, 53.6884482 ] } },
{ "type": "Feature", "properties": { "element": "node", "id": 12945143276, "amenity": "kindergarten", "name": null }, "geometry": { "type": "Point", "coordinates": [ 91.1868138, 53.6879647 ] } },
{ "type": "Feature", "properties": { "element": "node", "id": 12945143314, "amenity": "school", "name": null }, "geometry": { "type": "Point", "coordinates": [ 91.3118809, 53.7770591 ] } },
{ "type": "Feature", "properties": { "element": "node", "id": 12954679697, "amenity": "kindergarten", "name": null }, "geometry": { "type": "Point", "coordinates": [ 91.546714, 53.6646194 ] } },
{ "type": "Feature", "properties": { "element": "node", "id": 12974639947, "amenity": "kindergarten", "name": null }, "geometry": { "type": "Point", "coordinates": [ 91.2795635, 53.5517672 ] } },
{ "type": "Feature", "properties": { "element": "node", "id": 13033392382, "amenity": "kindergarten", "name": "Калинка" }, "geometry": { "type": "Point", "coordinates": [ 91.3629744, 53.7483795 ] } },
{ "type": "Feature", "properties": { "element": "node", "id": 13033450986, "amenity": "kindergarten", "name": null }, "geometry": { "type": "Point", "coordinates": [ 91.3515911, 53.7910915 ] } },
{ "type": "Feature", "properties": { "element": "node", "id": 13033451168, "amenity": "school", "name": "МБОУ СОШ №10" }, "geometry": { "type": "Point", "coordinates": [ 91.4398579, 53.7172939 ] } },
{ "type": "Feature", "properties": { "element": "node", "id": 13236862846, "amenity": "school", "name": "МБОУ СОШ №22" }, "geometry": { "type": "Point", "coordinates": [ 91.4164725, 53.7199158 ] } },
{ "type": "Feature", "properties": { "element": "relation", "id": 1847259, "amenity": "school", "name": "МБОУ №СОШ 22\"" }, "geometry": { "type": "Point", "coordinates": [ 91.416532427145825, 53.719944018415887 ] } },
{ "type": "Feature", "properties": { "element": "relation", "id": 1847963, "amenity": "school", "name": "Школа №24" }, "geometry": { "type": "Point", "coordinates": [ 91.431401282053216, 53.745945270059494 ] } },
{ "type": "Feature", "properties": { "element": "relation", "id": 1967073, "amenity": "school", "name": "Школа №1" }, "geometry": { "type": "Point", "coordinates": [ 91.446322070950416, 53.721189605850178 ] } },
{ "type": "Feature", "properties": { "element": "relation", "id": 1967074, "amenity": "kindergarten", "name": null }, "geometry": { "type": "Point", "coordinates": [ 91.447008198807723, 53.71939304183811 ] } },
{ "type": "Feature", "properties": { "element": "relation", "id": 1967277, "amenity": "school", "name": "ГБУ РХ Хакасская Национальная Гимназия-интернат им. Н. Ф. Катанова" }, "geometry": { "type": "Point", "coordinates": [ 91.448938780983369, 53.734734613529916 ] } },
{ "type": "Feature", "properties": { "element": "relation", "id": 1967415, "amenity": "kindergarten", "name": "Детский сад №202" }, "geometry": { "type": "Point", "coordinates": [ 91.442459966764773, 53.718907020784606 ] } },
{ "type": "Feature", "properties": { "element": "relation", "id": 1967949, "amenity": "kindergarten", "name": null }, "geometry": { "type": "Point", "coordinates": [ 91.439104700051104, 53.732078524330106 ] } },
{ "type": "Feature", "properties": { "element": "relation", "id": 1968749, "amenity": "hospital", "name": "Абаканская инфекционная больница" }, "geometry": { "type": "Point", "coordinates": [ 91.416933406902785, 53.693541983652636 ] } },
{ "type": "Feature", "properties": { "element": "relation", "id": 1968750, "amenity": "hospital", "name": "Пансионат ветеранов" }, "geometry": { "type": "Point", "coordinates": [ 91.419620582063018, 53.691784589654027 ] } },
{ "type": "Feature", "properties": { "element": "relation", "id": 1968752, "amenity": "hospital", "name": "Республиканское бюро судебно-медицинской экспертизы республики Хакасия" }, "geometry": { "type": "Point", "coordinates": [ 91.415482842956692, 53.694190298920269 ] } },
{ "type": "Feature", "properties": { "element": "relation", "id": 1968754, "amenity": "hospital", "name": "Хакаский республиканский онкологический диспансер" }, "geometry": { "type": "Point", "coordinates": [ 91.417107930398842, 53.694580301180991 ] } },
{ "type": "Feature", "properties": { "element": "relation", "id": 1969263, "amenity": "school", "name": null }, "geometry": { "type": "Point", "coordinates": [ 91.435431846676479, 53.702799533700059 ] } },
{ "type": "Feature", "properties": { "element": "relation", "id": 1969264, "amenity": "kindergarten", "name": null }, "geometry": { "type": "Point", "coordinates": [ 91.432804893254925, 53.702079636250815 ] } },
{ "type": "Feature", "properties": { "element": "relation", "id": 1969305, "amenity": "school", "name": null }, "geometry": { "type": "Point", "coordinates": [ 91.436661670094566, 53.71228934020963 ] } },
{ "type": "Feature", "properties": { "element": "relation", "id": 1969408, "amenity": "hospital", "name": "Психоневрологический диспансер" }, "geometry": { "type": "Point", "coordinates": [ 91.376701906010751, 53.723133675323091 ] } },
{ "type": "Feature", "properties": { "element": "relation", "id": 1969526, "amenity": "school", "name": "Школа №3" }, "geometry": { "type": "Point", "coordinates": [ 91.460474514863819, 53.724678959324109 ] } },
{ "type": "Feature", "properties": { "element": "relation", "id": 1970264, "amenity": "hospital", "name": "Железнодорожная Больница" }, "geometry": { "type": "Point", "coordinates": [ 91.396129171715998, 53.704701600765581 ] } },
{ "type": "Feature", "properties": { "element": "relation", "id": 1970268, "amenity": "kindergarten", "name": "детский сад №204" }, "geometry": { "type": "Point", "coordinates": [ 91.398129942523994, 53.703010030871603 ] } },
{ "type": "Feature", "properties": { "element": "relation", "id": 1970279, "amenity": "school", "name": "школа №9" }, "geometry": { "type": "Point", "coordinates": [ 91.398126604600606, 53.703983480835241 ] } },
{ "type": "Feature", "properties": { "element": "relation", "id": 1970347, "amenity": "kindergarten", "name": "детский сад Дениска" }, "geometry": { "type": "Point", "coordinates": [ 91.395364202916554, 53.701960934595036 ] } },
{ "type": "Feature", "properties": { "element": "relation", "id": 1970521, "amenity": "school", "name": "Абаканский специализированный дом ребёнка" }, "geometry": { "type": "Point", "coordinates": [ 91.422556360030512, 53.698710402208917 ] } },
{ "type": "Feature", "properties": { "element": "relation", "id": 1972033, "amenity": "kindergarten", "name": "МБДОУ \"Д/с \"Жаворонок\"" }, "geometry": { "type": "Point", "coordinates": [ 91.42116434047027, 53.730667582655897 ] } },
{ "type": "Feature", "properties": { "element": "relation", "id": 2006265, "amenity": "kindergarten", "name": null }, "geometry": { "type": "Point", "coordinates": [ 91.439173489351433, 53.732088208247745 ] } },
{ "type": "Feature", "properties": { "element": "relation", "id": 4792283, "amenity": "kindergarten", "name": null }, "geometry": { "type": "Point", "coordinates": [ 90.395211216406352, 54.809291890047376 ] } },
{ "type": "Feature", "properties": { "element": "relation", "id": 5414639, "amenity": "kindergarten", "name": "Детский сад \"Колокольчик\"" }, "geometry": { "type": "Point", "coordinates": [ 91.884476052788202, 53.341658543349808 ] } },
{ "type": "Feature", "properties": { "element": "relation", "id": 5414641, "amenity": "school", "name": null }, "geometry": { "type": "Point", "coordinates": [ 91.882857794450572, 53.342206065185813 ] } },
{ "type": "Feature", "properties": { "element": "relation", "id": 5417695, "amenity": "kindergarten", "name": null }, "geometry": { "type": "Point", "coordinates": [ 91.565402920135966, 53.25365358566998 ] } },
{ "type": "Feature", "properties": { "element": "relation", "id": 6547681, "amenity": "kindergarten", "name": "Детский сад \"Золотая рыбка\"" }, "geometry": { "type": "Point", "coordinates": [ 91.293412102892106, 53.82614553291792 ] } },
{ "type": "Feature", "properties": { "element": "relation", "id": 6547682, "amenity": "school", "name": "Средняя общеобразовательная школа №1" }, "geometry": { "type": "Point", "coordinates": [ 91.292672392420727, 53.826795782739453 ] } },
{ "type": "Feature", "properties": { "element": "relation", "id": 6589903, "amenity": "kindergarten", "name": "Детский сад \"Чайка\"" }, "geometry": { "type": "Point", "coordinates": [ 91.301626938283789, 53.824707493763277 ] } },
{ "type": "Feature", "properties": { "element": "relation", "id": 9268507, "amenity": "school", "name": null }, "geometry": { "type": "Point", "coordinates": [ 89.878321568490236, 54.728600541778725 ] } },
{ "type": "Feature", "properties": { "element": "relation", "id": 10447080, "amenity": "kindergarten", "name": "\"Колосок\", детский сад компенсирующего вида" }, "geometry": { "type": "Point", "coordinates": [ 91.316667092979273, 53.822511660560394 ] } },
{ "type": "Feature", "properties": { "element": "relation", "id": 10537627, "amenity": "school", "name": "Школа N°2" }, "geometry": { "type": "Point", "coordinates": [ 91.370923012188413, 53.843320152990451 ] } },
{ "type": "Feature", "properties": { "element": "relation", "id": 10716890, "amenity": "school", "name": "Основная общеобразовательная школа № 6" }, "geometry": { "type": "Point", "coordinates": [ 91.292593194406948, 53.814543023056139 ] } },
{ "type": "Feature", "properties": { "element": "relation", "id": 10825766, "amenity": "school", "name": "Средняя общеобразовательная школа № 9" }, "geometry": { "type": "Point", "coordinates": [ 91.235509895945555, 53.820018088011309 ] } },
{ "type": "Feature", "properties": { "element": "relation", "id": 10825768, "amenity": "school", "name": "Основная общеобразовательная школа № 13" }, "geometry": { "type": "Point", "coordinates": [ 91.29763822723919, 53.807266261154361 ] } },
{ "type": "Feature", "properties": { "element": "relation", "id": 10889529, "amenity": "school", "name": "Школа N°3" }, "geometry": { "type": "Point", "coordinates": [ 91.402669033560571, 53.820816208630234 ] } },
{ "type": "Feature", "properties": { "element": "relation", "id": 10889530, "amenity": "hospital", "name": "Усть-Абаканская районная больница" }, "geometry": { "type": "Point", "coordinates": [ 91.398956049258189, 53.824106465884853 ] } },
{ "type": "Feature", "properties": { "element": "relation", "id": 10948388, "amenity": "hospital", "name": "Детское поликлиническое отделение" }, "geometry": { "type": "Point", "coordinates": [ 91.400371556847233, 53.819070536534078 ] } },
{ "type": "Feature", "properties": { "element": "relation", "id": 11227279, "amenity": "kindergarten", "name": "Детский сад «Солнышко»" }, "geometry": { "type": "Point", "coordinates": [ 91.404550176584024, 53.81972495595965 ] } },
{ "type": "Feature", "properties": { "element": "relation", "id": 11744648, "amenity": "school", "name": null }, "geometry": { "type": "Point", "coordinates": [ 91.261228072066885, 53.909807135453882 ] } },
{ "type": "Feature", "properties": { "element": "relation", "id": 11808094, "amenity": "kindergarten", "name": "Подготовительная школа \"Вишенка\"" }, "geometry": { "type": "Point", "coordinates": [ 91.328334664888004, 53.828772497533215 ] } },
{ "type": "Feature", "properties": { "element": "relation", "id": 11906179, "amenity": "kindergarten", "name": "Детский сад «Алёнка»" }, "geometry": { "type": "Point", "coordinates": [ 91.427909690905651, 53.720787579520504 ] } },
{ "type": "Feature", "properties": { "element": "relation", "id": 12414702, "amenity": "hospital", "name": null }, "geometry": { "type": "Point", "coordinates": [ 91.344031727512856, 53.826270163750181 ] } },
{ "type": "Feature", "properties": { "element": "relation", "id": 14157907, "amenity": "kindergarten", "name": "Детский сад «Ромашка»" }, "geometry": { "type": "Point", "coordinates": [ 91.39635436697175, 53.836208144202189 ] } },
{ "type": "Feature", "properties": { "element": "relation", "id": 16092453, "amenity": "school", "name": "Школа №5" }, "geometry": { "type": "Point", "coordinates": [ 91.311353057709212, 53.834819845315884 ] } },
{ "type": "Feature", "properties": { "element": "relation", "id": 17683650, "amenity": "school", "name": "Детско-юношеская спортивная школа" }, "geometry": { "type": "Point", "coordinates": [ 91.3136483466279, 53.822795628160058 ] } },
{ "type": "Feature", "properties": { "element": "relation", "id": 18158922, "amenity": "school", "name": "Средняя общеобразовательная школа №7" }, "geometry": { "type": "Point", "coordinates": [ 91.300368970257395, 53.821103534069742 ] } },
{ "type": "Feature", "properties": { "element": "relation", "id": 18336720, "amenity": "kindergarten", "name": "Солнышко" }, "geometry": { "type": "Point", "coordinates": [ 91.337965532929388, 53.649604663277316 ] } },
{ "type": "Feature", "properties": { "element": "way", "id": 85382694, "amenity": "kindergarten", "name": "Детский Сад \"Золотой ключик\"" }, "geometry": { "type": "Point", "coordinates": [ 91.456723239091417, 53.744500388725733 ] } },
{ "type": "Feature", "properties": { "element": "way", "id": 100624809, "amenity": "kindergarten", "name": "Детский сад Светлячок" }, "geometry": { "type": "Point", "coordinates": [ 91.332478499660795, 53.826306367771913 ] } },
{ "type": "Feature", "properties": { "element": "way", "id": 101006041, "amenity": "school", "name": "Школа №19" }, "geometry": { "type": "Point", "coordinates": [ 91.333319187257004, 53.823934444864108 ] } },
{ "type": "Feature", "properties": { "element": "way", "id": 105310129, "amenity": "kindergarten", "name": "МБДОУ «ЦРР - д/с «Василёк»" }, "geometry": { "type": "Point", "coordinates": [ 91.434611095668529, 53.725704119785988 ] } },
{ "type": "Feature", "properties": { "element": "way", "id": 110247930, "amenity": "kindergarten", "name": "МБДОУ \"Д/с \"Умка\"" }, "geometry": { "type": "Point", "coordinates": [ 91.424483639596104, 53.735745745790496 ] } },
{ "type": "Feature", "properties": { "element": "way", "id": 110247931, "amenity": "hospital", "name": "Республиканская детская клиническая больница" }, "geometry": { "type": "Point", "coordinates": [ 91.426530872750433, 53.736025541221785 ] } },
{ "type": "Feature", "properties": { "element": "way", "id": 112460475, "amenity": "kindergarten", "name": "Теремок" }, "geometry": { "type": "Point", "coordinates": [ 91.375641909889183, 53.594165065024022 ] } },
{ "type": "Feature", "properties": { "element": "way", "id": 123419066, "amenity": "clinic", "name": "Городская поликлиника №1" }, "geometry": { "type": "Point", "coordinates": [ 91.323536775659562, 53.827217354679213 ] } },
{ "type": "Feature", "properties": { "element": "way", "id": 136962164, "amenity": "school", "name": "Школа №11" }, "geometry": { "type": "Point", "coordinates": [ 91.423287833487166, 53.717574044269689 ] } },
{ "type": "Feature", "properties": { "element": "way", "id": 136962165, "amenity": "kindergarten", "name": "МБДОУ \"Д/с \"Алёнка\"" }, "geometry": { "type": "Point", "coordinates": [ 91.428078398457004, 53.720596587372889 ] } },
{ "type": "Feature", "properties": { "element": "way", "id": 137135121, "amenity": "kindergarten", "name": "МБДОУ \"Д/с \"Дюймовочка\"" }, "geometry": { "type": "Point", "coordinates": [ 91.404672237853262, 53.695429456846988 ] } },
{ "type": "Feature", "properties": { "element": "way", "id": 137135126, "amenity": "kindergarten", "name": "МБДОУ \"Д/с \"Настенька\"" }, "geometry": { "type": "Point", "coordinates": [ 91.403189351671074, 53.695972099768291 ] } },
{ "type": "Feature", "properties": { "element": "way", "id": 137135191, "amenity": "hospital", "name": null }, "geometry": { "type": "Point", "coordinates": [ 91.396001250000012, 53.70433335 ] } },
{ "type": "Feature", "properties": { "element": "way", "id": 137135264, "amenity": "school", "name": "МБОУ \"ООШ № 17\"" }, "geometry": { "type": "Point", "coordinates": [ 91.436017927281355, 53.712274912578671 ] } },
{ "type": "Feature", "properties": { "element": "way", "id": 137385331, "amenity": "school", "name": null }, "geometry": { "type": "Point", "coordinates": [ 89.561892077284497, 54.904169610326171 ] } },
{ "type": "Feature", "properties": { "element": "way", "id": 138205659, "amenity": "kindergarten", "name": "МБДОУ \"ЦРР-Д/с \"Мечта\"" }, "geometry": { "type": "Point", "coordinates": [ 91.433622262942976, 53.744555577321265 ] } },
{ "type": "Feature", "properties": { "element": "way", "id": 138292448, "amenity": "kindergarten", "name": "МБДОУ \"ЦРР - д/с \"Чайка\"" }, "geometry": { "type": "Point", "coordinates": [ 91.447041250843554, 53.719856850909949 ] } },
{ "type": "Feature", "properties": { "element": "way", "id": 138292474, "amenity": "school", "name": "Православная Гимназия им. Святителя Иннокентия Московского" }, "geometry": { "type": "Point", "coordinates": [ 91.46164468630235, 53.712434710014492 ] } },
{ "type": "Feature", "properties": { "element": "way", "id": 139076849, "amenity": "kindergarten", "name": "МБДОУ \"ЦРР-д/с \"Ивушка\"" }, "geometry": { "type": "Point", "coordinates": [ 91.43924537468817, 53.732215802002898 ] } },
{ "type": "Feature", "properties": { "element": "way", "id": 139076918, "amenity": "kindergarten", "name": "Березка" }, "geometry": { "type": "Point", "coordinates": [ 91.451315800000017, 53.7183594 ] } },
{ "type": "Feature", "properties": { "element": "way", "id": 139076981, "amenity": "school", "name": "Школа №30" }, "geometry": { "type": "Point", "coordinates": [ 91.446502412282939, 53.718004398071884 ] } },
{ "type": "Feature", "properties": { "element": "way", "id": 145411446, "amenity": "school", "name": "ГБУ РХ \"Республиканский дом-интернат для умственно отсталых детей \"Теремок\"" }, "geometry": { "type": "Point", "coordinates": [ 91.422119045155483, 53.688899886287977 ] } },
{ "type": "Feature", "properties": { "element": "way", "id": 145411665, "amenity": "kindergarten", "name": null }, "geometry": { "type": "Point", "coordinates": [ 91.419085812862434, 53.688638999785319 ] } },
{ "type": "Feature", "properties": { "element": "way", "id": 145418895, "amenity": "school", "name": "Школа №30" }, "geometry": { "type": "Point", "coordinates": [ 91.446409865071317, 53.718162249262171 ] } },
{ "type": "Feature", "properties": { "element": "way", "id": 145422022, "amenity": "school", "name": "МБСКОУ \"ООШ № 27\"" }, "geometry": { "type": "Point", "coordinates": [ 91.444007640819862, 53.725746870444752 ] } },
{ "type": "Feature", "properties": { "element": "way", "id": 145423932, "amenity": "school", "name": null }, "geometry": { "type": "Point", "coordinates": [ 91.439821307459425, 53.717602721973748 ] } },
{ "type": "Feature", "properties": { "element": "way", "id": 145423940, "amenity": "kindergarten", "name": "Детский сад \"Калинка\"" }, "geometry": { "type": "Point", "coordinates": [ 91.435941261169546, 53.718433329146215 ] } },
{ "type": "Feature", "properties": { "element": "way", "id": 145433689, "amenity": "school", "name": "Школа № 20" }, "geometry": { "type": "Point", "coordinates": [ 91.46933584999347, 53.720246158930877 ] } },
{ "type": "Feature", "properties": { "element": "way", "id": 145463833, "amenity": "kindergarten", "name": "Машенька" }, "geometry": { "type": "Point", "coordinates": [ 91.408544733552333, 53.697132736064312 ] } },
{ "type": "Feature", "properties": { "element": "way", "id": 145463834, "amenity": "kindergarten", "name": "Огонёк" }, "geometry": { "type": "Point", "coordinates": [ 91.403419737632305, 53.702444676630932 ] } },
{ "type": "Feature", "properties": { "element": "way", "id": 145463835, "amenity": "kindergarten", "name": "Мастерок" }, "geometry": { "type": "Point", "coordinates": [ 91.406335518579567, 53.698495068755115 ] } },
{ "type": "Feature", "properties": { "element": "way", "id": 145495568, "amenity": "kindergarten", "name": "МБДОУ \"Д/с \"Ёлочка\"" }, "geometry": { "type": "Point", "coordinates": [ 91.431866141381619, 53.736143644619403 ] } },
{ "type": "Feature", "properties": { "element": "way", "id": 145495570, "amenity": "kindergarten", "name": null }, "geometry": { "type": "Point", "coordinates": [ 91.431218579868911, 53.735968416329939 ] } },
{ "type": "Feature", "properties": { "element": "way", "id": 145495571, "amenity": "school", "name": "Школа № 12" }, "geometry": { "type": "Point", "coordinates": [ 91.429921641344933, 53.73658709806719 ] } },
{ "type": "Feature", "properties": { "element": "way", "id": 145501418, "amenity": "kindergarten", "name": null }, "geometry": { "type": "Point", "coordinates": [ 91.438689087196337, 53.730022204129618 ] } },
{ "type": "Feature", "properties": { "element": "way", "id": 145517072, "amenity": "school", "name": "Школа №5" }, "geometry": { "type": "Point", "coordinates": [ 91.453571359474566, 53.737704398759369 ] } },
{ "type": "Feature", "properties": { "element": "way", "id": 145564445, "amenity": "school", "name": null }, "geometry": { "type": "Point", "coordinates": [ 91.422574104921097, 53.717318648577496 ] } },
{ "type": "Feature", "properties": { "element": "way", "id": 145567876, "amenity": "kindergarten", "name": "Детский сад \"Золушка\"" }, "geometry": { "type": "Point", "coordinates": [ 91.427418466645562, 53.718398752672279 ] } },
{ "type": "Feature", "properties": { "element": "way", "id": 145583225, "amenity": "kindergarten", "name": null }, "geometry": { "type": "Point", "coordinates": [ 91.547015271915498, 53.663216603156769 ] } },
{ "type": "Feature", "properties": { "element": "way", "id": 145583376, "amenity": "kindergarten", "name": "Детский сад «Сказка»" }, "geometry": { "type": "Point", "coordinates": [ 91.428119308491659, 53.721696666138044 ] } },
{ "type": "Feature", "properties": { "element": "way", "id": 145583936, "amenity": "hospital", "name": "ГУЗ РХ \"Противотуберкулезный диспансер\"" }, "geometry": { "type": "Point", "coordinates": [ 91.41981183365013, 53.694337677149086 ] } },
{ "type": "Feature", "properties": { "element": "way", "id": 145583944, "amenity": "school", "name": "Дом-интернат \"Теремок\"" }, "geometry": { "type": "Point", "coordinates": [ 91.421815072311247, 53.688247538542214 ] } },
{ "type": "Feature", "properties": { "element": "way", "id": 145587501, "amenity": "school", "name": null }, "geometry": { "type": "Point", "coordinates": [ 91.546134637803632, 53.665444588066194 ] } },
{ "type": "Feature", "properties": { "element": "way", "id": 145592119, "amenity": "school", "name": "Абаканская радиотехническая школа" }, "geometry": { "type": "Point", "coordinates": [ 91.45496805453331, 53.721671984733412 ] } },
{ "type": "Feature", "properties": { "element": "way", "id": 145593775, "amenity": "kindergarten", "name": null }, "geometry": { "type": "Point", "coordinates": [ 91.434653936005191, 53.725656948756871 ] } },
{ "type": "Feature", "properties": { "element": "way", "id": 145601582, "amenity": "kindergarten", "name": "МБДОУ «Д/с «Сибирячок»" }, "geometry": { "type": "Point", "coordinates": [ 91.434925652963855, 53.723582175886946 ] } },
{ "type": "Feature", "properties": { "element": "way", "id": 145601587, "amenity": "kindergarten", "name": "Аленький цветочек" }, "geometry": { "type": "Point", "coordinates": [ 91.437473875825589, 53.723830136975145 ] } },
{ "type": "Feature", "properties": { "element": "way", "id": 145614695, "amenity": "school", "name": null }, "geometry": { "type": "Point", "coordinates": [ 91.455574846845408, 53.722889691017755 ] } },
{ "type": "Feature", "properties": { "element": "way", "id": 145620486, "amenity": "school", "name": null }, "geometry": { "type": "Point", "coordinates": [ 91.472763115910993, 53.658193437433404 ] } },
{ "type": "Feature", "properties": { "element": "way", "id": 145620573, "amenity": "kindergarten", "name": "Солнышко" }, "geometry": { "type": "Point", "coordinates": [ 91.469814958125411, 53.658040308214865 ] } },
{ "type": "Feature", "properties": { "element": "way", "id": 145620732, "amenity": "kindergarten", "name": "Детский сад № 51" }, "geometry": { "type": "Point", "coordinates": [ 91.472867990873027, 53.718083305455579 ] } },
{ "type": "Feature", "properties": { "element": "way", "id": 145620735, "amenity": "school", "name": "Школа № 2" }, "geometry": { "type": "Point", "coordinates": [ 91.472118605088184, 53.713897927528613 ] } },
{ "type": "Feature", "properties": { "element": "way", "id": 145621216, "amenity": "kindergarten", "name": null }, "geometry": { "type": "Point", "coordinates": [ 91.459841148382893, 53.722451163146765 ] } },
{ "type": "Feature", "properties": { "element": "way", "id": 145621325, "amenity": "school", "name": "МБОУ \"СОШ № 18\"" }, "geometry": { "type": "Point", "coordinates": [ 91.435812030094894, 53.702608328878156 ] } },
{ "type": "Feature", "properties": { "element": "way", "id": 145623651, "amenity": "kindergarten", "name": "Незабудка" }, "geometry": { "type": "Point", "coordinates": [ 91.4320242, 53.70110665 ] } },
{ "type": "Feature", "properties": { "element": "way", "id": 145623898, "amenity": "school", "name": "школа №4" }, "geometry": { "type": "Point", "coordinates": [ 91.41801973172258, 53.707628269326747 ] } },
{ "type": "Feature", "properties": { "element": "way", "id": 145625435, "amenity": "school", "name": null }, "geometry": { "type": "Point", "coordinates": [ 91.506028930833025, 53.710490129228006 ] } },
{ "type": "Feature", "properties": { "element": "way", "id": 145627950, "amenity": "school", "name": "Православная Гимназия им. Святителя Иннокентия Московского" }, "geometry": { "type": "Point", "coordinates": [ 91.461238049137819, 53.712428651893518 ] } },
{ "type": "Feature", "properties": { "element": "way", "id": 145627951, "amenity": "kindergarten", "name": "Тополек" }, "geometry": { "type": "Point", "coordinates": [ 91.465165650000017, 53.7130356 ] } },
{ "type": "Feature", "properties": { "element": "way", "id": 145627955, "amenity": "kindergarten", "name": "Детский сад «Кристаллик»" }, "geometry": { "type": "Point", "coordinates": [ 91.460747402280276, 53.717774439135383 ] } },
{ "type": "Feature", "properties": { "element": "way", "id": 145661297, "amenity": "kindergarten", "name": null }, "geometry": { "type": "Point", "coordinates": [ 91.398471910746608, 53.699648574915749 ] } },
{ "type": "Feature", "properties": { "element": "way", "id": 145661351, "amenity": "school", "name": null }, "geometry": { "type": "Point", "coordinates": [ 91.400510745144786, 53.699918357278875 ] } },
{ "type": "Feature", "properties": { "element": "way", "id": 145663727, "amenity": "kindergarten", "name": null }, "geometry": { "type": "Point", "coordinates": [ 91.504673182396871, 53.70941614961793 ] } },
{ "type": "Feature", "properties": { "element": "way", "id": 145665233, "amenity": "school", "name": "МБОУ №СОШ № 23\"" }, "geometry": { "type": "Point", "coordinates": [ 91.394336743270117, 53.683040259927679 ] } },
{ "type": "Feature", "properties": { "element": "way", "id": 145666438, "amenity": "hospital", "name": "Городская больница" }, "geometry": { "type": "Point", "coordinates": [ 91.452950574567012, 53.724506137401271 ] } },
{ "type": "Feature", "properties": { "element": "way", "id": 145666441, "amenity": "hospital", "name": "Станция скорой помощи" }, "geometry": { "type": "Point", "coordinates": [ 91.454635868711151, 53.724665390279796 ] } },
{ "type": "Feature", "properties": { "element": "way", "id": 145672300, "amenity": "school", "name": "Школа №23" }, "geometry": { "type": "Point", "coordinates": [ 91.394814017696632, 53.683615780838245 ] } },
{ "type": "Feature", "properties": { "element": "way", "id": 145674423, "amenity": "school", "name": "Школа № 25" }, "geometry": { "type": "Point", "coordinates": [ 91.434682068656045, 53.729855134334215 ] } },
{ "type": "Feature", "properties": { "element": "way", "id": 145717415, "amenity": "kindergarten", "name": null }, "geometry": { "type": "Point", "coordinates": [ 91.497409003860099, 53.702536583231783 ] } },
{ "type": "Feature", "properties": { "element": "way", "id": 145730380, "amenity": "school", "name": null }, "geometry": { "type": "Point", "coordinates": [ 91.404350489196474, 53.757816211009846 ] } },
{ "type": "Feature", "properties": { "element": "way", "id": 145739603, "amenity": "kindergarten", "name": "Детский сад Дениска" }, "geometry": { "type": "Point", "coordinates": [ 91.395367245707448, 53.701936828846272 ] } },
{ "type": "Feature", "properties": { "element": "way", "id": 145739607, "amenity": "hospital", "name": null }, "geometry": { "type": "Point", "coordinates": [ 91.395189584858258, 53.704277081036615 ] } },
{ "type": "Feature", "properties": { "element": "way", "id": 145750945, "amenity": "hospital", "name": null }, "geometry": { "type": "Point", "coordinates": [ 91.394834421146257, 53.704544804851373 ] } },
{ "type": "Feature", "properties": { "element": "way", "id": 145757693, "amenity": "kindergarten", "name": "МБДОУ \"ЦРР-Д/с \"Золотая рыбка\"" }, "geometry": { "type": "Point", "coordinates": [ 91.428188689143084, 53.745153122792033 ] } },
{ "type": "Feature", "properties": { "element": "way", "id": 145760249, "amenity": "school", "name": null }, "geometry": { "type": "Point", "coordinates": [ 91.416370677154816, 53.720254795261205 ] } },
{ "type": "Feature", "properties": { "element": "way", "id": 145951376, "amenity": "kindergarten", "name": "Рябинушка" }, "geometry": { "type": "Point", "coordinates": [ 91.426900966681188, 53.731375523749165 ] } },
{ "type": "Feature", "properties": { "element": "way", "id": 146016572, "amenity": "kindergarten", "name": "МБДОУ \"Д/с \"Орлёнок\"" }, "geometry": { "type": "Point", "coordinates": [ 91.441708246423858, 53.733909115316699 ] } },
{ "type": "Feature", "properties": { "element": "way", "id": 146241804, "amenity": "school", "name": "школа-интернат" }, "geometry": { "type": "Point", "coordinates": [ 91.424767017283372, 53.740039912945093 ] } },
{ "type": "Feature", "properties": { "element": "way", "id": 146241806, "amenity": "kindergarten", "name": "Детский сад «Радуга»" }, "geometry": { "type": "Point", "coordinates": [ 91.428110805236159, 53.738632078803413 ] } },
{ "type": "Feature", "properties": { "element": "way", "id": 146241810, "amenity": "kindergarten", "name": null }, "geometry": { "type": "Point", "coordinates": [ 91.422703729374774, 53.737733132299951 ] } },
{ "type": "Feature", "properties": { "element": "way", "id": 148786989, "amenity": "kindergarten", "name": "ДС \"Мечта\"" }, "geometry": { "type": "Point", "coordinates": [ 91.433627833356525, 53.744453539910545 ] } },
{ "type": "Feature", "properties": { "element": "way", "id": 149466773, "amenity": "kindergarten", "name": "Детский сад «Росинка»" }, "geometry": { "type": "Point", "coordinates": [ 91.331378795805705, 53.823213529907498 ] } },
{ "type": "Feature", "properties": { "element": "way", "id": 149873407, "amenity": "kindergarten", "name": "Детский сад «Радуга»" }, "geometry": { "type": "Point", "coordinates": [ 91.329841239012211, 53.82505140275358 ] } },
{ "type": "Feature", "properties": { "element": "way", "id": 173660729, "amenity": "hospital", "name": "Ширинская районная больница" }, "geometry": { "type": "Point", "coordinates": [ 89.980824137213801, 54.487356323810751 ] } },
{ "type": "Feature", "properties": { "element": "way", "id": 243047981, "amenity": "school", "name": "Лицей имени А.Г. Баженова" }, "geometry": { "type": "Point", "coordinates": [ 91.322296858770841, 53.826368014611695 ] } },
{ "type": "Feature", "properties": { "element": "way", "id": 258471782, "amenity": "clinic", "name": "Детская поликлиника" }, "geometry": { "type": "Point", "coordinates": [ 91.299843212542342, 53.825558578899361 ] } },
{ "type": "Feature", "properties": { "element": "way", "id": 292572399, "amenity": "hospital", "name": "Аскизкая районная поликлиника" }, "geometry": { "type": "Point", "coordinates": [ 90.531571420676514, 53.13225463545016 ] } },
{ "type": "Feature", "properties": { "element": "way", "id": 292574025, "amenity": "hospital", "name": "Аскизкая центральная районная больница" }, "geometry": { "type": "Point", "coordinates": [ 90.532120753941342, 53.132978989353163 ] } },
{ "type": "Feature", "properties": { "element": "way", "id": 293379307, "amenity": "hospital", "name": "Туманный, Реабилитационный центр" }, "geometry": { "type": "Point", "coordinates": [ 90.326949368923849, 54.087291827216546 ] } },
{ "type": "Feature", "properties": { "element": "way", "id": 295807674, "amenity": "school", "name": "Лицей имени Н.Г. Булакина" }, "geometry": { "type": "Point", "coordinates": [ 91.420866301580233, 53.735832631121994 ] } },
{ "type": "Feature", "properties": { "element": "way", "id": 296125456, "amenity": "kindergarten", "name": "Детский сад \"Ручеек\"" }, "geometry": { "type": "Point", "coordinates": [ 91.324669475180229, 53.831987086328809 ] } },
{ "type": "Feature", "properties": { "element": "way", "id": 296375965, "amenity": "hospital", "name": null }, "geometry": { "type": "Point", "coordinates": [ 90.858016054231413, 54.214140106160819 ] } },
{ "type": "Feature", "properties": { "element": "way", "id": 296375966, "amenity": "clinic", "name": "ГБУЗРХ «Боградская районная больница»" }, "geometry": { "type": "Point", "coordinates": [ 90.857913421562756, 54.214498123558585 ] } },
{ "type": "Feature", "properties": { "element": "way", "id": 296600269, "amenity": "school", "name": "ГБООУ РХ  \"Боградская санаторная школа-интернат\"" }, "geometry": { "type": "Point", "coordinates": [ 90.852790514696238, 54.216442064755199 ] } },
{ "type": "Feature", "properties": { "element": "way", "id": 296621108, "amenity": "kindergarten", "name": null }, "geometry": { "type": "Point", "coordinates": [ 90.857893209886356, 54.218720878158571 ] } },
{ "type": "Feature", "properties": { "element": "way", "id": 296621112, "amenity": "school", "name": null }, "geometry": { "type": "Point", "coordinates": [ 90.859362392803064, 54.218955345920001 ] } },
{ "type": "Feature", "properties": { "element": "way", "id": 311211390, "amenity": "school", "name": "Школа №31" }, "geometry": { "type": "Point", "coordinates": [ 91.416185493598419, 53.741290716387461 ] } },
{ "type": "Feature", "properties": { "element": "way", "id": 313285393, "amenity": "kindergarten", "name": "Детский сад \"Теремок\"" }, "geometry": { "type": "Point", "coordinates": [ 91.3211043077158, 53.82924123289709 ] } },
{ "type": "Feature", "properties": { "element": "way", "id": 313285397, "amenity": "kindergarten", "name": "Детский сад \"Звёздочка\"" }, "geometry": { "type": "Point", "coordinates": [ 91.320596384198595, 53.829748223646746 ] } },
{ "type": "Feature", "properties": { "element": "way", "id": 316185018, "amenity": "kindergarten", "name": "Детский сад «Капитошка»" }, "geometry": { "type": "Point", "coordinates": [ 91.423837691111913, 53.745380726060816 ] } },
{ "type": "Feature", "properties": { "element": "way", "id": 322460543, "amenity": "school", "name": null }, "geometry": { "type": "Point", "coordinates": [ 91.431264972687998, 53.745518456406295 ] } },
{ "type": "Feature", "properties": { "element": "way", "id": 322460545, "amenity": "school", "name": "Гимназия (Школа №8)" }, "geometry": { "type": "Point", "coordinates": [ 91.438044046615829, 53.740645709302271 ] } },
{ "type": "Feature", "properties": { "element": "way", "id": 338367227, "amenity": "kindergarten", "name": null }, "geometry": { "type": "Point", "coordinates": [ 89.979694496031513, 54.491814469264128 ] } },
{ "type": "Feature", "properties": { "element": "way", "id": 338367764, "amenity": "school", "name": null }, "geometry": { "type": "Point", "coordinates": [ 89.975045817697307, 54.49325023819712 ] } },
{ "type": "Feature", "properties": { "element": "way", "id": 339123713, "amenity": "school", "name": null }, "geometry": { "type": "Point", "coordinates": [ 90.383899365766581, 54.805209083703531 ] } },
{ "type": "Feature", "properties": { "element": "way", "id": 339123961, "amenity": "clinic", "name": null }, "geometry": { "type": "Point", "coordinates": [ 90.403911492212785, 54.808851344940734 ] } },
{ "type": "Feature", "properties": { "element": "way", "id": 340400711, "amenity": "kindergarten", "name": null }, "geometry": { "type": "Point", "coordinates": [ 90.371293015204131, 54.46599138744849 ] } },
{ "type": "Feature", "properties": { "element": "way", "id": 340400713, "amenity": "school", "name": null }, "geometry": { "type": "Point", "coordinates": [ 90.37442278584895, 54.464473362524579 ] } },
{ "type": "Feature", "properties": { "element": "way", "id": 340400765, "amenity": "school", "name": null }, "geometry": { "type": "Point", "coordinates": [ 90.37527175, 54.46417675 ] } },
{ "type": "Feature", "properties": { "element": "way", "id": 364297290, "amenity": "school", "name": null }, "geometry": { "type": "Point", "coordinates": [ 91.562596108207543, 53.413427166667937 ] } },
{ "type": "Feature", "properties": { "element": "way", "id": 364309950, "amenity": "kindergarten", "name": null }, "geometry": { "type": "Point", "coordinates": [ 91.637268230765599, 53.506913324688206 ] } },
{ "type": "Feature", "properties": { "element": "way", "id": 364380779, "amenity": "school", "name": null }, "geometry": { "type": "Point", "coordinates": [ 91.570630139096025, 53.254429541015234 ] } },
{ "type": "Feature", "properties": { "element": "way", "id": 376234198, "amenity": "kindergarten", "name": null }, "geometry": { "type": "Point", "coordinates": [ 90.241581322947553, 53.993958488912206 ] } },
{ "type": "Feature", "properties": { "element": "way", "id": 376234837, "amenity": "hospital", "name": null }, "geometry": { "type": "Point", "coordinates": [ 90.250863930389698, 53.996916920213508 ] } },
{ "type": "Feature", "properties": { "element": "way", "id": 376236995, "amenity": "kindergarten", "name": null }, "geometry": { "type": "Point", "coordinates": [ 90.253660190464231, 54.003113529440597 ] } },
{ "type": "Feature", "properties": { "element": "way", "id": 376238883, "amenity": "school", "name": null }, "geometry": { "type": "Point", "coordinates": [ 90.246539005834691, 54.004253309193203 ] } },
{ "type": "Feature", "properties": { "element": "way", "id": 413055895, "amenity": "kindergarten", "name": "МБДОУ \"Д/с \"Антошка\"" }, "geometry": { "type": "Point", "coordinates": [ 91.39844849002786, 53.699596940510773 ] } },
{ "type": "Feature", "properties": { "element": "way", "id": 430838171, "amenity": "school", "name": "школа 49" }, "geometry": { "type": "Point", "coordinates": [ 90.101221902896683, 52.651738112632309 ] } },
{ "type": "Feature", "properties": { "element": "way", "id": 434369210, "amenity": "clinic", "name": "Яблоко" }, "geometry": { "type": "Point", "coordinates": [ 91.33161934711552, 53.821849354616475 ] } },
{ "type": "Feature", "properties": { "element": "way", "id": 440151311, "amenity": "kindergarten", "name": "Детский сад «Ёлочка»" }, "geometry": { "type": "Point", "coordinates": [ 91.335582340942821, 53.830896649561865 ] } },
{ "type": "Feature", "properties": { "element": "way", "id": 440151312, "amenity": "kindergarten", "name": "Детский сад \"Журавушка\"" }, "geometry": { "type": "Point", "coordinates": [ 91.316640946560824, 53.839447909238146 ] } },
{ "type": "Feature", "properties": { "element": "way", "id": 440151313, "amenity": "kindergarten", "name": "Детский сад «Сказка»" }, "geometry": { "type": "Point", "coordinates": [ 91.333611916921512, 53.830088077193167 ] } },
{ "type": "Feature", "properties": { "element": "way", "id": 440152226, "amenity": "school", "name": "Лицей имени А.Г. Баженова (здание начальной школы)" }, "geometry": { "type": "Point", "coordinates": [ 91.324822020927215, 53.823892027006359 ] } },
{ "type": "Feature", "properties": { "element": "way", "id": 440781510, "amenity": "hospital", "name": "Черногорская межрайонная детская больница" }, "geometry": { "type": "Point", "coordinates": [ 91.317532119749316, 53.82862570028832 ] } },
{ "type": "Feature", "properties": { "element": "way", "id": 440810462, "amenity": "kindergarten", "name": "Детский сад Ромашка" }, "geometry": { "type": "Point", "coordinates": [ 91.294599857759721, 53.821773775171643 ] } },
{ "type": "Feature", "properties": { "element": "way", "id": 440810464, "amenity": "kindergarten", "name": "Детский сад Рябинка" }, "geometry": { "type": "Point", "coordinates": [ 91.295194529871935, 53.821207777146498 ] } },
{ "type": "Feature", "properties": { "element": "way", "id": 446315432, "amenity": "kindergarten", "name": "Детский сад «Калинка»" }, "geometry": { "type": "Point", "coordinates": [ 91.329959609547927, 53.833849819310188 ] } },
{ "type": "Feature", "properties": { "element": "way", "id": 446322854, "amenity": "kindergarten", "name": "Детский сад «Улыбка»" }, "geometry": { "type": "Point", "coordinates": [ 91.326743929990897, 53.822104511623785 ] } },
{ "type": "Feature", "properties": { "element": "way", "id": 447651856, "amenity": "kindergarten", "name": "Росинка" }, "geometry": { "type": "Point", "coordinates": [ 91.409188363621524, 53.092479400027223 ] } },
{ "type": "Feature", "properties": { "element": "way", "id": 447693577, "amenity": "kindergarten", "name": "Почемучка" }, "geometry": { "type": "Point", "coordinates": [ 91.40488913800948, 53.105176479940383 ] } },
{ "type": "Feature", "properties": { "element": "way", "id": 447693578, "amenity": "kindergarten", "name": "Дельфин" }, "geometry": { "type": "Point", "coordinates": [ 91.402024112176122, 53.105524947230769 ] } },
{ "type": "Feature", "properties": { "element": "way", "id": 447693580, "amenity": "school", "name": "Школа №3 им. Героя России С. Медведева" }, "geometry": { "type": "Point", "coordinates": [ 91.409095732242776, 53.095681798577544 ] } },
{ "type": "Feature", "properties": { "element": "way", "id": 447693581, "amenity": "school", "name": "Школа №5" }, "geometry": { "type": "Point", "coordinates": [ 91.405220379812121, 53.100886424473252 ] } },
{ "type": "Feature", "properties": { "element": "way", "id": 448340707, "amenity": "school", "name": "Школа №6" }, "geometry": { "type": "Point", "coordinates": [ 91.403315299524991, 53.106678602401502 ] } },
{ "type": "Feature", "properties": { "element": "way", "id": 448340712, "amenity": "kindergarten", "name": "Аленький цветочек" }, "geometry": { "type": "Point", "coordinates": [ 91.405680438295747, 53.106649323779564 ] } },
{ "type": "Feature", "properties": { "element": "way", "id": 448340720, "amenity": "kindergarten", "name": null }, "geometry": { "type": "Point", "coordinates": [ 91.417091124635022, 53.096870753319465 ] } },
{ "type": "Feature", "properties": { "element": "way", "id": 448340722, "amenity": "school", "name": "Школа №1" }, "geometry": { "type": "Point", "coordinates": [ 91.416169583487161, 53.089115263064592 ] } },
{ "type": "Feature", "properties": { "element": "way", "id": 448340725, "amenity": "kindergarten", "name": "Лукоморье" }, "geometry": { "type": "Point", "coordinates": [ 91.421827447773566, 53.103640864515882 ] } },
{ "type": "Feature", "properties": { "element": "way", "id": 448340728, "amenity": "school", "name": "Школа-интернат № 8" }, "geometry": { "type": "Point", "coordinates": [ 91.417619359322543, 53.099236831714009 ] } },
{ "type": "Feature", "properties": { "element": "way", "id": 448340729, "amenity": "kindergarten", "name": null }, "geometry": { "type": "Point", "coordinates": [ 91.410905090308631, 53.087993954009974 ] } },
{ "type": "Feature", "properties": { "element": "way", "id": 448340730, "amenity": "school", "name": "Школа №2" }, "geometry": { "type": "Point", "coordinates": [ 91.410314248077839, 53.093824121733483 ] } },
{ "type": "Feature", "properties": { "element": "way", "id": 448340732, "amenity": "kindergarten", "name": "Жемчужинка" }, "geometry": { "type": "Point", "coordinates": [ 91.416667375876813, 53.102968990147502 ] } },
{ "type": "Feature", "properties": { "element": "way", "id": 448340734, "amenity": "kindergarten", "name": "Умка" }, "geometry": { "type": "Point", "coordinates": [ 91.404376821347327, 53.108669169881331 ] } },
{ "type": "Feature", "properties": { "element": "way", "id": 448340737, "amenity": "school", "name": "Лицей №7" }, "geometry": { "type": "Point", "coordinates": [ 91.418589040498574, 53.098034011581007 ] } },
{ "type": "Feature", "properties": { "element": "way", "id": 452249175, "amenity": "kindergarten", "name": "Снегирёк" }, "geometry": { "type": "Point", "coordinates": [ 91.41121637472898, 53.099202004587085 ] } },
{ "type": "Feature", "properties": { "element": "way", "id": 452249638, "amenity": "kindergarten", "name": null }, "geometry": { "type": "Point", "coordinates": [ 91.482320636148017, 52.997963682513408 ] } },
{ "type": "Feature", "properties": { "element": "way", "id": 452256799, "amenity": "kindergarten", "name": "Сказка" }, "geometry": { "type": "Point", "coordinates": [ 91.414500052260465, 53.104184845882415 ] } },
{ "type": "Feature", "properties": { "element": "way", "id": 454851794, "amenity": "clinic", "name": null }, "geometry": { "type": "Point", "coordinates": [ 91.415434845036913, 53.101661169740581 ] } },
{ "type": "Feature", "properties": { "element": "way", "id": 454852340, "amenity": "school", "name": "Школа №1" }, "geometry": { "type": "Point", "coordinates": [ 91.420386099999973, 52.8472159 ] } },
{ "type": "Feature", "properties": { "element": "way", "id": 454852341, "amenity": "kindergarten", "name": null }, "geometry": { "type": "Point", "coordinates": [ 91.419013298238696, 52.846110908534861 ] } },
{ "type": "Feature", "properties": { "element": "way", "id": 454852357, "amenity": "kindergarten", "name": null }, "geometry": { "type": "Point", "coordinates": [ 91.416352050364992, 52.862078525465371 ] } },
{ "type": "Feature", "properties": { "element": "way", "id": 458100307, "amenity": "school", "name": null }, "geometry": { "type": "Point", "coordinates": [ 90.787957448105317, 54.583709944005228 ] } },
{ "type": "Feature", "properties": { "element": "way", "id": 473793596, "amenity": "school", "name": "Эврика" }, "geometry": { "type": "Point", "coordinates": [ 91.419563736570979, 52.857636025736255 ] } },
{ "type": "Feature", "properties": { "element": "way", "id": 489899804, "amenity": "school", "name": "Туимская СШ № 3" }, "geometry": { "type": "Point", "coordinates": [ 89.938923156749084, 54.340142637634614 ] } },
{ "type": "Feature", "properties": { "element": "way", "id": 499243938, "amenity": "school", "name": "Начальная школа № 49" }, "geometry": { "type": "Point", "coordinates": [ 90.090486162813647, 52.651206141303156 ] } },
{ "type": "Feature", "properties": { "element": "way", "id": 500723303, "amenity": "hospital", "name": "Туберкулёзная больница" }, "geometry": { "type": "Point", "coordinates": [ 90.096508699999987, 52.650363100000014 ] } },
{ "type": "Feature", "properties": { "element": "way", "id": 504367716, "amenity": "school", "name": "Школа № 5" }, "geometry": { "type": "Point", "coordinates": [ 90.0739393, 52.6198592 ] } },
{ "type": "Feature", "properties": { "element": "way", "id": 505717738, "amenity": "kindergarten", "name": "Сказка" }, "geometry": { "type": "Point", "coordinates": [ 90.0759816, 52.614214499999989 ] } },
{ "type": "Feature", "properties": { "element": "way", "id": 507870059, "amenity": "kindergarten", "name": "Дельфин" }, "geometry": { "type": "Point", "coordinates": [ 90.083729114896911, 52.651396319492783 ] } },
{ "type": "Feature", "properties": { "element": "way", "id": 507870060, "amenity": "kindergarten", "name": "Улыбка" }, "geometry": { "type": "Point", "coordinates": [ 90.085655268730875, 52.652633249134112 ] } },
{ "type": "Feature", "properties": { "element": "way", "id": 507870061, "amenity": "kindergarten", "name": "Алёнка" }, "geometry": { "type": "Point", "coordinates": [ 90.086675758744377, 52.653356111008208 ] } },
{ "type": "Feature", "properties": { "element": "way", "id": 519099840, "amenity": "clinic", "name": "Амбулатория" }, "geometry": { "type": "Point", "coordinates": [ 91.091966201694717, 54.28017896271426 ] } },
{ "type": "Feature", "properties": { "element": "way", "id": 521608108, "amenity": "school", "name": null }, "geometry": { "type": "Point", "coordinates": [ 90.778988492626581, 53.199066287371572 ] } },
{ "type": "Feature", "properties": { "element": "way", "id": 653730509, "amenity": "hospital", "name": "Республиканский клинический перинатальный центр" }, "geometry": { "type": "Point", "coordinates": [ 91.446476519133455, 53.738565508906866 ] } },
{ "type": "Feature", "properties": { "element": "way", "id": 654994825, "amenity": "clinic", "name": "Диагностический центр Абакан" }, "geometry": { "type": "Point", "coordinates": [ 91.454919803117917, 53.725476029897443 ] } },
{ "type": "Feature", "properties": { "element": "way", "id": 735117982, "amenity": "kindergarten", "name": "Детский сад «Алёнушка»" }, "geometry": { "type": "Point", "coordinates": [ 91.374048156547317, 53.844095361767536 ] } },
{ "type": "Feature", "properties": { "element": "way", "id": 736162568, "amenity": "clinic", "name": "Поликлиника" }, "geometry": { "type": "Point", "coordinates": [ 91.398708663747925, 53.823494481922388 ] } },
{ "type": "Feature", "properties": { "element": "way", "id": 738523987, "amenity": "school", "name": null }, "geometry": { "type": "Point", "coordinates": [ 91.280745248491385, 53.55215523639616 ] } },
{ "type": "Feature", "properties": { "element": "way", "id": 740517589, "amenity": "school", "name": null }, "geometry": { "type": "Point", "coordinates": [ 91.379248781369839, 53.831671158953341 ] } },
{ "type": "Feature", "properties": { "element": "way", "id": 743339895, "amenity": "hospital", "name": "Изыхский ФАП" }, "geometry": { "type": "Point", "coordinates": [ 91.282448496795539, 53.552225347991808 ] } },
{ "type": "Feature", "properties": { "element": "way", "id": 751542750, "amenity": "school", "name": "Школа N°1" }, "geometry": { "type": "Point", "coordinates": [ 91.391072290194472, 53.83194862507613 ] } },
{ "type": "Feature", "properties": { "element": "way", "id": 754636084, "amenity": "kindergarten", "name": "Детский сад «Радуга»" }, "geometry": { "type": "Point", "coordinates": [ 91.394849555121937, 53.836574942961974 ] } },
{ "type": "Feature", "properties": { "element": "way", "id": 818518323, "amenity": "kindergarten", "name": "Детский сад «Ласточка»" }, "geometry": { "type": "Point", "coordinates": [ 91.407216993804894, 53.820144647585714 ] } },
{ "type": "Feature", "properties": { "element": "way", "id": 858683916, "amenity": "kindergarten", "name": "Детский сад «Родничок»" }, "geometry": { "type": "Point", "coordinates": [ 91.214531300034395, 53.814827946582746 ] } },
{ "type": "Feature", "properties": { "element": "way", "id": 858699914, "amenity": "school", "name": "Школа" }, "geometry": { "type": "Point", "coordinates": [ 89.522932001662596, 53.454211797579944 ] } },
{ "type": "Feature", "properties": { "element": "way", "id": 859006435, "amenity": "school", "name": null }, "geometry": { "type": "Point", "coordinates": [ 91.088324741166957, 54.280405027965422 ] } },
{ "type": "Feature", "properties": { "element": "way", "id": 859361476, "amenity": "kindergarten", "name": "Детский сад «Лукоморье»" }, "geometry": { "type": "Point", "coordinates": [ 91.204948223511039, 53.816757652545789 ] } },
{ "type": "Feature", "properties": { "element": "way", "id": 860344786, "amenity": "kindergarten", "name": "Детский сад «Колокольчик»" }, "geometry": { "type": "Point", "coordinates": [ 91.22819181359192, 53.819774929162186 ] } },
{ "type": "Feature", "properties": { "element": "way", "id": 861200250, "amenity": "hospital", "name": null }, "geometry": { "type": "Point", "coordinates": [ 91.299959025982062, 53.825509363252081 ] } },
{ "type": "Feature", "properties": { "element": "way", "id": 863189270, "amenity": "kindergarten", "name": "Детский сад \"Алёнка\"" }, "geometry": { "type": "Point", "coordinates": [ 91.324026341832905, 53.829765391864257 ] } },
{ "type": "Feature", "properties": { "element": "way", "id": 863189300, "amenity": "clinic", "name": "Медиком" }, "geometry": { "type": "Point", "coordinates": [ 91.337404850000013, 53.822596249999989 ] } },
{ "type": "Feature", "properties": { "element": "way", "id": 863189301, "amenity": "clinic", "name": "Медиком" }, "geometry": { "type": "Point", "coordinates": [ 91.33698155, 53.82241445 ] } },
{ "type": "Feature", "properties": { "element": "way", "id": 864046210, "amenity": "hospital", "name": null }, "geometry": { "type": "Point", "coordinates": [ 91.310323874818806, 53.821392616561909 ] } },
{ "type": "Feature", "properties": { "element": "way", "id": 864130926, "amenity": "school", "name": "Средняя общеобразовательная школа №16 им. Д.М. Карбышева" }, "geometry": { "type": "Point", "coordinates": [ 91.315378185509417, 53.816629292131616 ] } },
{ "type": "Feature", "properties": { "element": "way", "id": 864130932, "amenity": "kindergarten", "name": "Детский сад \"Белочка\"" }, "geometry": { "type": "Point", "coordinates": [ 91.312089124625814, 53.815154865708344 ] } },
{ "type": "Feature", "properties": { "element": "way", "id": 864498753, "amenity": "school", "name": "Средняя общеобразовательная школа № 20" }, "geometry": { "type": "Point", "coordinates": [ 91.330478447352775, 53.832110324789213 ] } },
{ "type": "Feature", "properties": { "element": "way", "id": 864508001, "amenity": "school", "name": "Гимназия" }, "geometry": { "type": "Point", "coordinates": [ 91.325934633848888, 53.83051402088828 ] } },
{ "type": "Feature", "properties": { "element": "way", "id": 864516261, "amenity": "kindergarten", "name": "Детский сад \"Гнёздышко\"" }, "geometry": { "type": "Point", "coordinates": [ 91.322910634110883, 53.831226306396346 ] } },
{ "type": "Feature", "properties": { "element": "way", "id": 864525137, "amenity": "kindergarten", "name": "Детский сад «Росинка»" }, "geometry": { "type": "Point", "coordinates": [ 91.437066753400501, 53.739391912150545 ] } },
{ "type": "Feature", "properties": { "element": "way", "id": 864533417, "amenity": "hospital", "name": "Черногорская городская стоматологическая поликлиника" }, "geometry": { "type": "Point", "coordinates": [ 91.315086019290035, 53.822802347438937 ] } },
{ "type": "Feature", "properties": { "element": "way", "id": 864540129, "amenity": "hospital", "name": "Родильный дом, г. Черногорск" }, "geometry": { "type": "Point", "coordinates": [ 91.309369219195119, 53.821983091640767 ] } },
{ "type": "Feature", "properties": { "element": "way", "id": 864558670, "amenity": "school", "name": "Средняя общеобразовательная школа №4" }, "geometry": { "type": "Point", "coordinates": [ 91.213834319081229, 53.816624472727028 ] } },
{ "type": "Feature", "properties": { "element": "way", "id": 864562623, "amenity": "kindergarten", "name": "МБДОУ \"Д/с \"Матрешка\"" }, "geometry": { "type": "Point", "coordinates": [ 91.437477127660586, 53.716172410063912 ] } },
{ "type": "Feature", "properties": { "element": "way", "id": 864931414, "amenity": "school", "name": "Начальная общеобразовательная школа №3" }, "geometry": { "type": "Point", "coordinates": [ 91.291348139238394, 53.821006886940424 ] } },
{ "type": "Feature", "properties": { "element": "way", "id": 865030401, "amenity": "kindergarten", "name": "Детский Сад \"Ягодка\"" }, "geometry": { "type": "Point", "coordinates": [ 91.339349214185745, 53.826969667948603 ] } },
{ "type": "Feature", "properties": { "element": "way", "id": 865996101, "amenity": "clinic", "name": "Клиника Волошина" }, "geometry": { "type": "Point", "coordinates": [ 91.329598808070827, 53.830298484583459 ] } },
{ "type": "Feature", "properties": { "element": "way", "id": 872938848, "amenity": "kindergarten", "name": "Детский сад \"Рябинушка\"" }, "geometry": { "type": "Point", "coordinates": [ 91.313815608722678, 53.774284733678996 ] } },
{ "type": "Feature", "properties": { "element": "way", "id": 879382562, "amenity": "kindergarten", "name": "Детский сад «Варенька»" }, "geometry": { "type": "Point", "coordinates": [ 91.416900568235306, 53.738605786036658 ] } },
{ "type": "Feature", "properties": { "element": "way", "id": 880877778, "amenity": "kindergarten", "name": "Филипок" }, "geometry": { "type": "Point", "coordinates": [ 91.42671257359396, 53.72740633564996 ] } },
{ "type": "Feature", "properties": { "element": "way", "id": 881221764, "amenity": "kindergarten", "name": "Дашенька" }, "geometry": { "type": "Point", "coordinates": [ 91.414281630797177, 53.728361790148242 ] } },
{ "type": "Feature", "properties": { "element": "way", "id": 885202813, "amenity": "kindergarten", "name": null }, "geometry": { "type": "Point", "coordinates": [ 91.437080093878691, 53.738040082872928 ] } },
{ "type": "Feature", "properties": { "element": "way", "id": 885344755, "amenity": "hospital", "name": null }, "geometry": { "type": "Point", "coordinates": [ 91.399857257937001, 53.110540384474774 ] } },
{ "type": "Feature", "properties": { "element": "way", "id": 885344771, "amenity": "school", "name": null }, "geometry": { "type": "Point", "coordinates": [ 91.408309754704874, 53.084588999438985 ] } },
{ "type": "Feature", "properties": { "element": "way", "id": 886516957, "amenity": "kindergarten", "name": null }, "geometry": { "type": "Point", "coordinates": [ 91.408975212458685, 53.690116009976904 ] } },
{ "type": "Feature", "properties": { "element": "way", "id": 886542602, "amenity": "school", "name": null }, "geometry": { "type": "Point", "coordinates": [ 91.295782043760326, 53.195476060646577 ] } },
{ "type": "Feature", "properties": { "element": "way", "id": 905315574, "amenity": "kindergarten", "name": "Звездочка" }, "geometry": { "type": "Point", "coordinates": [ 91.393836843735301, 53.698927604483899 ] } },
{ "type": "Feature", "properties": { "element": "way", "id": 922350566, "amenity": "school", "name": null }, "geometry": { "type": "Point", "coordinates": [ 89.821486122518451, 54.994166942958536 ] } },
{ "type": "Feature", "properties": { "element": "way", "id": 922420405, "amenity": "hospital", "name": null }, "geometry": { "type": "Point", "coordinates": [ 89.808981192802776, 54.98872052374594 ] } },
{ "type": "Feature", "properties": { "element": "way", "id": 956452099, "amenity": "hospital", "name": null }, "geometry": { "type": "Point", "coordinates": [ 89.944990815778311, 54.342176175687392 ] } },
{ "type": "Feature", "properties": { "element": "way", "id": 1080117870, "amenity": "school", "name": null }, "geometry": { "type": "Point", "coordinates": [ 91.098978993063341, 53.934418582031519 ] } },
{ "type": "Feature", "properties": { "element": "way", "id": 1115921670, "amenity": "kindergarten", "name": "Детский сад «Дельфинчик»" }, "geometry": { "type": "Point", "coordinates": [ 91.334083669764027, 53.833292002059338 ] } },
{ "type": "Feature", "properties": { "element": "way", "id": 1122525768, "amenity": "hospital", "name": null }, "geometry": { "type": "Point", "coordinates": [ 91.3973703595789, 53.704744695533492 ] } },
{ "type": "Feature", "properties": { "element": "way", "id": 1130667981, "amenity": "hospital", "name": "ГБУЗ РХ Аскизская Мб" }, "geometry": { "type": "Point", "coordinates": [ 90.438722033382007, 53.137041874894066 ] } },
{ "type": "Feature", "properties": { "element": "way", "id": 1130668048, "amenity": "kindergarten", "name": null }, "geometry": { "type": "Point", "coordinates": [ 90.426773509599187, 53.134991975142668 ] } },
{ "type": "Feature", "properties": { "element": "way", "id": 1130668057, "amenity": "school", "name": null }, "geometry": { "type": "Point", "coordinates": [ 90.428191128560684, 53.135968815943585 ] } },
{ "type": "Feature", "properties": { "element": "way", "id": 1130715874, "amenity": "kindergarten", "name": "Детский сад «Алёнушка»" }, "geometry": { "type": "Point", "coordinates": [ 89.5645559, 53.26350875 ] } },
{ "type": "Feature", "properties": { "element": "way", "id": 1130715889, "amenity": "school", "name": null }, "geometry": { "type": "Point", "coordinates": [ 89.560046286877537, 53.261794379176557 ] } },
{ "type": "Feature", "properties": { "element": "way", "id": 1131097597, "amenity": "school", "name": "МБОУ СОШ №33" }, "geometry": { "type": "Point", "coordinates": [ 91.410232588986574, 53.729278009348484 ] } },
{ "type": "Feature", "properties": { "element": "way", "id": 1131551524, "amenity": "kindergarten", "name": "Чахайах" }, "geometry": { "type": "Point", "coordinates": [ 90.52015786278686, 53.132031241192117 ] } },
{ "type": "Feature", "properties": { "element": "way", "id": 1136400038, "amenity": "kindergarten", "name": null }, "geometry": { "type": "Point", "coordinates": [ 91.458101901715054, 53.72550223933866 ] } },
{ "type": "Feature", "properties": { "element": "way", "id": 1162332319, "amenity": "kindergarten", "name": "МБДОУ Д/с \"Елочка\"" }, "geometry": { "type": "Point", "coordinates": [ 91.430346274462792, 53.735864514653166 ] } },
{ "type": "Feature", "properties": { "element": "way", "id": 1228560989, "amenity": "kindergarten", "name": null }, "geometry": { "type": "Point", "coordinates": [ 91.363238552823617, 53.748335525458678 ] } },
{ "type": "Feature", "properties": { "element": "way", "id": 1252013275, "amenity": "kindergarten", "name": "Берёзка" }, "geometry": { "type": "Point", "coordinates": [ 90.314238140586056, 52.715515125356923 ] } },
{ "type": "Feature", "properties": { "element": "way", "id": 1253103662, "amenity": "kindergarten", "name": "Колокольчик" }, "geometry": { "type": "Point", "coordinates": [ 90.285354370457199, 52.697762152294622 ] } },
{ "type": "Feature", "properties": { "element": "way", "id": 1253112619, "amenity": "school", "name": "Малоарбатская школа" }, "geometry": { "type": "Point", "coordinates": [ 90.308399643334511, 52.717001931066598 ] } },
{ "type": "Feature", "properties": { "element": "way", "id": 1254870503, "amenity": "clinic", "name": "Поликлиника" }, "geometry": { "type": "Point", "coordinates": [ 89.876562617693011, 52.799512565020251 ] } },
{ "type": "Feature", "properties": { "element": "way", "id": 1254870617, "amenity": "school", "name": null }, "geometry": { "type": "Point", "coordinates": [ 89.882812251166172, 52.806027010815065 ] } },
{ "type": "Feature", "properties": { "element": "way", "id": 1254870618, "amenity": "school", "name": "Школа интернат -1" }, "geometry": { "type": "Point", "coordinates": [ 89.883635707306354, 52.805449845271575 ] } },
{ "type": "Feature", "properties": { "element": "way", "id": 1256554732, "amenity": "hospital", "name": "Участковая больница" }, "geometry": { "type": "Point", "coordinates": [ 89.884739910218528, 53.328589620907287 ] } },
{ "type": "Feature", "properties": { "element": "way", "id": 1256911643, "amenity": "school", "name": null }, "geometry": { "type": "Point", "coordinates": [ 91.410276074784946, 53.729647567608467 ] } },
{ "type": "Feature", "properties": { "element": "way", "id": 1305284870, "amenity": "school", "name": "Школа № 50" }, "geometry": { "type": "Point", "coordinates": [ 90.097874698171466, 52.647284067529739 ] } },
{ "type": "Feature", "properties": { "element": "way", "id": 1315847869, "amenity": "kindergarten", "name": "Лесовичок" }, "geometry": { "type": "Point", "coordinates": [ 89.520642830469725, 53.456198185591695 ] } },
{ "type": "Feature", "properties": { "element": "way", "id": 1316578260, "amenity": "kindergarten", "name": null }, "geometry": { "type": "Point", "coordinates": [ 91.336056948659873, 53.64883509212482 ] } },
{ "type": "Feature", "properties": { "element": "way", "id": 1317597344, "amenity": "kindergarten", "name": "Чылтызах" }, "geometry": { "type": "Point", "coordinates": [ 89.891533878469744, 52.793030955779422 ] } },
{ "type": "Feature", "properties": { "element": "way", "id": 1348770534, "amenity": "kindergarten", "name": "Детский сад \"Огонек\"" }, "geometry": { "type": "Point", "coordinates": [ 91.374376483696565, 53.591847523590353 ] } },
{ "type": "Feature", "properties": { "element": "way", "id": 1348770535, "amenity": "kindergarten", "name": "Детский сад \"Буратино\"" }, "geometry": { "type": "Point", "coordinates": [ 91.373367863085377, 53.591568416842939 ] } },
{ "type": "Feature", "properties": { "element": "way", "id": 1350328089, "amenity": "school", "name": null }, "geometry": { "type": "Point", "coordinates": [ 89.345849586881641, 53.322754590682166 ] } },
{ "type": "Feature", "properties": { "element": "way", "id": 1350606665, "amenity": "school", "name": null }, "geometry": { "type": "Point", "coordinates": [ 89.131978095324214, 53.415743983451172 ] } },
{ "type": "Feature", "properties": { "element": "way", "id": 1350616662, "amenity": "school", "name": null }, "geometry": { "type": "Point", "coordinates": [ 90.18407905, 53.15949565 ] } },
{ "type": "Feature", "properties": { "element": "way", "id": 1350618396, "amenity": "school", "name": null }, "geometry": { "type": "Point", "coordinates": [ 90.188486255108558, 53.160405679011028 ] } },
{ "type": "Feature", "properties": { "element": "way", "id": 1378419286, "amenity": "school", "name": "Школа №15" }, "geometry": { "type": "Point", "coordinates": [ 91.261314022380148, 53.909602469668783 ] } },
{ "type": "Feature", "properties": { "element": "way", "id": 1443081830, "amenity": "school", "name": "Усть-Есинская СОШ" }, "geometry": { "type": "Point", "coordinates": [ 90.250536923100043, 52.958179692163377 ] } }
]
}
